,name,city,country,latitude,longitude,starbucks,starbucks_lat,starbucks_lon,airport,air_lat,air_lon
0,Wetpaint,Seattle,USA,47.603122,-122.333253,Starbucks,47.6041558,-122.3308269,Seattle-Tacoma International Airport,47.4502499,-122.3088165
1,Wetpaint,New York,USA,40.7237306,-73.9964312,Starbucks,40.722553,-73.997942,John F. Kennedy International Airport,40.6413111,-73.77813909999999
2,Slacker,San Diego,USA,33.022176,-117.081406,Starbucks,33.0234909,-117.0818371,McClellan-Palomar Airport,33.1268216,-117.2792408
3,Babelgum,London,GBR,53.344104,-6.267494,Starbucks Crampton Quay,53.346055,-6.2623945,Dublin Airport,53.42644809999999,-6.249909799999999
4,Mahalo,Culver City,USA,34.017606,-118.487267,Starbucks,34.0172403,-118.489752,Los Angeles International Airport,33.9415889,-118.40853
5,Kyte,San Francisco,USA,37.788482,-122.409173,Starbucks,37.789146,-122.408456,San Francisco International Airport,37.6213129,-122.3789554
6,Wesabe,San Francisco,USA,37.793148,-122.402567,Starbucks,37.792183,-122.40377,San Francisco International Airport,37.6213129,-122.3789554
7,AdaptiveBlue,NYC,USA,40.801358,-74.3372,Starbucks,40.798594,-74.340772,Newark Liberty International Airport,40.6895314,-74.1744624
8,Pando Networks,New York,USA,40.722655,-73.99873,Starbucks,40.722553,-73.997942,John F. Kennedy International Airport,40.6413111,-73.77813909999999
9,Livestream,New York,USA,40.726155,-73.995625,Starbucks,40.727212,-73.995485,John F. Kennedy International Airport,40.6413111,-73.77813909999999
10,YouTube,San Bruno,USA,37.627971,-122.426804,Starbucks,37.62572919999999,-122.4260703,San Francisco International Airport,37.6213129,-122.3789554
11,CastTV,San Francisco,USA,37.780716,-122.393913,Starbucks,37.77867,-122.396701,San Francisco International Airport,37.6213129,-122.3789554
12,EQO,Vancouver,CAN,49.263588,-123.138565,Starbucks,49.26313769999999,-123.1388466,Vancouver International Airport,49.1966913,-123.1815123
13,iSkoot,Cambridge,USA,42.375392,-71.118487,Starbucks Reserve,42.373333,-71.119214,Boston Logan International Airport,42.3656132,-71.0095602
14,iSkoot,San Francisco,USA,37.780134,-122.396744,Starbucks,37.77867,-122.396701,San Francisco International Airport,37.6213129,-122.3789554
15,Netvibes,Paris,FRA,48.870806,2.34668,Starbucks,48.8706754,2.3469117,Paris-Charles De Gaulle,49.0096906,2.5479245
16,FeedBurner,Chicago,USA,41.889474,-87.628912,Starbucks,41.89016000000001,-87.63125099999999,Chicago Midway International Airport,41.78677589999999,-87.7521884
17,WeFi,Fairfax,USA,37.09024,-95.712891,United States,37.09024,-95.712891,Coffeyville Municipal Airport,37.0941308,-95.5716456
18,TVtrip,Paris,FRA,48.856667,2.350987,Starbucks,48.8568201,2.3548934,Paris-Charles De Gaulle,49.0096906,2.5479245
19,Bebo,San Francisco,USA,37.782103,-122.401116,Starbucks,37.784833,-122.39996,San Francisco International Airport,37.6213129,-122.3789554
20,FlickIM,Berkeley,USA,37.870744,-122.269259,Starbucks,37.868791,-122.268212,Oakland International Airport,37.7125689,-122.2197428
21,Loomia,San Francisco,USA,37.796396,-122.404869,Starbucks,37.794632,-122.402728,San Francisco International Airport,37.6213129,-122.3789554
22,Terabitz,Palo Alto,USA,37.437328,-122.159928,Peet's Coffee,37.4380642,-122.159322,San Carlos Airport,37.5153754,-122.2503052
23,Eventbrite,San Francisco,USA,37.779507,-122.39071,Starbucks,37.777035,-122.393641,San Francisco International Airport,37.6213129,-122.3789554
24,Seesmic,San Francisco,USA,37.775196,-122.419204,Starbucks,37.7770595,-122.417347,San Francisco International Airport,37.6213129,-122.3789554
25,Flixster,San Francisco,USA,37.766909,-122.406676,Starbucks,37.7658845,-122.4034908,San Francisco International Airport,37.6213129,-122.3789554
26,spigit,Pleasanton,USA,37.6637279,-121.8731805,Starbucks,37.660676,-121.875909,Livermore Municipal Airport,37.6960965,-121.8196537
27,spigit,Reston,USA,38.9590083,-77.3592746,Starbucks,38.958891,-77.35914,Dulles International Airport,38.9531162,-77.45653879999999
28,spigit,London,GBR,51.5170385,-0.1394759,Starbucks Coffee,51.514458,-0.142504,London City Airport,51.5048437,0.049518
29,Jaxtr,Menlo Park,USA,37.451026,-122.18676,Starbucks,37.452214,-122.183867,San Francisco International Airport,37.6213129,-122.3789554
30,Curse,San Francisco,USA,37.787092,-122.399972,Starbucks,37.787764,-122.401087,San Francisco International Airport,37.6213129,-122.3789554
31,Vuze,San Mateo,USA,37.4858654,-122.2262606,Starbucks Reserve,37.486332,-122.229944,San Francisco International Airport,37.6213129,-122.3789554
32,NowPublic,Vancouver,CAN,49.283376,-123.103986,Starbucks,49.2844427,-123.108513,Vancouver International Airport,49.1966913,-123.1815123
33,Retrevo,Sunnyvale,USA,37.368594,-122.034021,Starbucks,37.3686003,-122.0356701,Norman Y. Mineta San Jose International Airport,37.3639472,-121.9289375
34,Tangler,Mountain View,USA,37.386665,-122.084171,Starbucks,37.387571,-122.083068,Norman Y. Mineta San Jose International Airport,37.3639472,-121.9289375
35,Revver,Los Angeles,USA,34.052187,-118.243425,Starbucks,34.050984,-118.242338,Los Angeles International Airport,33.9415889,-118.40853
36,Flock,Menlo Park,USA,37.491356,-122.228843,Starbucks,37.490422,-122.225101,San Francisco International Airport,37.6213129,-122.3789554
37,Dropbox,San Francisco,USA,37.7909427,-122.4084994,Starbucks,37.789348,-122.406831,San Francisco International Airport,37.6213129,-122.3789554
38,Kongregate,San Francisco,USA,37.786942,-122.401245,Starbucks,37.787764,-122.401087,San Francisco International Airport,37.6213129,-122.3789554
39,DanceJam,San Francisco,USA,37.781557,-122.407959,Starbucks,37.7841086,-122.4076337,San Francisco International Airport,37.6213129,-122.3789554
40,Yola,San Francisco,USA,37.7911148,-122.3954751,Starbucks Reserve,37.791511,-122.395103,San Francisco International Airport,37.6213129,-122.3789554
41,Filtrbox,Palo Alto,USA,40.010492,-105.276843,Starbucks,40.010728,-105.276648,Rocky Mountain Metropolitan Airport,39.90963780000001,-105.108089
42,BitTorrent,San Francisco,USA,37.790998,-122.394668,Starbucks Reserve,37.791511,-122.395103,San Francisco International Airport,37.6213129,-122.3789554
43,Doostang,Palo Alto,USA,37.427235,-122.145783,Starbucks,37.426867,-122.144091,Norman Y. Mineta San Jose International Airport,37.3639472,-121.9289375
44,Vlingo,Cambridge,USA,42.372912,-71.118999,Starbucks Reserve,42.373333,-71.119214,Boston Logan International Airport,42.3656132,-71.0095602
45,Docstoc,Santa Monica,USA,34.018275,-118.495025,Starbucks,34.0157416,-118.4965857,Los Angeles International Airport,33.9415889,-118.40853
46,Shock Treatment Management,Seattle,USA,47.610332,-122.339859,Starbucks,47.6090095,-122.3399417,Seattle-Tacoma International Airport,47.4502499,-122.3088165
47,DotBlu,San Francisco,USA,37.09024,-95.712891,United States,37.09024,-95.712891,Coffeyville Municipal Airport,37.0941308,-95.5716456
48,sezmi,Santa Monica,USA,34.017373,-118.453218,Starbucks,34.019731,-118.454721,Los Angeles International Airport,33.9415889,-118.40853
49,SpiralFrog,New York,USA,37.09024,-95.712891,United States,37.09024,-95.712891,Coffeyville Municipal Airport,37.0941308,-95.5716456
50,MocoSpace,Boston,USA,42.350274,-71.058768,Starbucks,42.35223999999999,-71.05597,Boston Logan International Airport,42.3656132,-71.0095602
51,Thumbplay,New York,USA,40.725435,-73.997395,Starbucks,40.727212,-73.995485,John F. Kennedy International Airport,40.6413111,-73.77813909999999
52,Wonga,London,GBR,51.5192042,-0.1626103,Starbucks,51.5223174,-0.1635591,Heathrow Airport,51.4700223,-0.4542955
53,SayNow,Palo Alto,USA,37.42746,-122.143915,Starbucks,37.426867,-122.144091,Norman Y. Mineta San Jose International Airport,37.3639472,-121.9289375
54,Crunchyroll,San Francisco,USA,37.781265,-122.393229,Starbucks,37.77867,-122.396701,San Francisco International Airport,37.6213129,-122.3789554
55,OMGPOP,New York,USA,40.723384,-74.001704,Starbucks,40.722553,-73.997942,John F. Kennedy International Airport,40.6413111,-73.77813909999999
56,Behance,New York,USA,40.74406,-74.004592,Starbucks,40.741128,-74.0013013,John F. Kennedy International Airport,40.6413111,-73.77813909999999
57,FlowPlay,Seattle,USA,47.6015315,-122.335943,Starbucks,47.601606,-122.333974,Seattle-Tacoma International Airport,47.4502499,-122.3088165
58,Viewpoints,Chicago,USA,41.890376,-87.63406,Starbucks,41.888639,-87.63452,Chicago Midway International Airport,41.78677589999999,-87.7521884
59,RatePoint,Needham,USA,42.296111,-71.238524,Starbucks,42.29325100000001,-71.235089,Boston Logan International Airport,42.3656132,-71.0095602
60,mig33,Singapore,SGP,37.580304,-122.343679,Starbucks,37.579393,-122.346144,San Francisco International Airport,37.6213129,-122.3789554
61,GamerDNA,Cambridge,USA,42.375392,-71.118487,Starbucks Reserve,42.373333,-71.119214,Boston Logan International Airport,42.3656132,-71.0095602
62,SpeedDate,San Mateo,USA,37.557637,-122.285714,Starbucks,37.5590258,-122.2830814,San Francisco International Airport,37.6213129,-122.3789554
63,Animoto,New York,USA,40.72948,-74.000195,Starbucks,40.730715,-74.002585,John F. Kennedy International Airport,40.6413111,-73.77813909999999
64,Metaplace,Solana Beach,USA,33.020832,-117.077311,Starbucks,33.017974,-117.07371,McClellan-Palomar Airport,33.1268216,-117.2792408
65,Xobni,San Francisco,USA,37.789634,-122.404052,Starbucks,37.7884614,-122.4034092,San Francisco International Airport,37.6213129,-122.3789554
66,Worklight,New York,USA,40.756799,-73.976348,Starbucks,40.757077,-73.97596899999999,John F. Kennedy International Airport,40.6413111,-73.77813909999999
67,Mobivox,Montreal,CAN,45.500277,-73.560084,Starbucks,45.5007393,-73.55924,Montréal-Pierre Elliott Trudeau International Airport,45.46568509999999,-73.7454814
68,3Jam,San Francisco,USA,37.765125,-122.4044034,Starbucks,37.7658845,-122.4034908,San Francisco International Airport,37.6213129,-122.3789554
69,Wikinvest,San Francisco,USA,37.775196,-122.419204,Starbucks,37.7770595,-122.417347,San Francisco International Airport,37.6213129,-122.3789554
70,RayV,New York,USA,40.781159,-73.978332,Starbucks,40.781017,-73.98101799999999,John F. Kennedy International Airport,40.6413111,-73.77813909999999
71,Polyvore,Mountain View,USA,37.386175,-122.083487,Starbucks,37.387571,-122.083068,Norman Y. Mineta San Jose International Airport,37.3639472,-121.9289375
72,Treemo Labs,Seattle,USA,47.620716,-122.347533,Starbucks,47.62103949999999,-122.3507743,Seattle-Tacoma International Airport,47.4502499,-122.3088165
73,Tumblr,New York,USA,40.743808,-73.983626,Starbucks,40.744169,-73.983712,John F. Kennedy International Airport,40.6413111,-73.77813909999999
74,EchoSign,Palo Alto,USA,37.445326,-122.160671,Starbucks,37.446791,-122.160561,San Francisco International Airport,37.6213129,-122.3789554
75,Eurekster,,USA,37.790992,-122.40188,Starbucks,37.790184,-122.402101,San Francisco International Airport,37.6213129,-122.3789554
76,Songbird,San Francisco,USA,37.787126,-122.39783,Starbucks,37.784833,-122.39996,San Francisco International Airport,37.6213129,-122.3789554
77,Disqus,San Francisco,USA,37.786906,-122.397672,Starbucks,37.784833,-122.39996,San Francisco International Airport,37.6213129,-122.3789554
78,Pelago,Seattle,USA,47.607065,-122.335373,Starbucks,47.607304,-122.334259,Seattle-Tacoma International Airport,47.4502499,-122.3088165
79,Faves,Seattle,USA,47.603327,-122.334983,Starbucks,47.60378799999999,-122.335678,Seattle-Tacoma International Airport,47.4502499,-122.3088165
80,Plazes,Berlin,DEU,52.523402,13.398694,Starbucks,52.52329,13.40217,Berlin-Tegel Airport,52.5588327,13.2884374
81,Vringo,New York,USA,40.7550005,-73.9717364,Starbucks,40.75416999999999,-73.971732,John F. Kennedy International Airport,40.6413111,-73.77813909999999
82,RepairPal,Emeryville,USA,37.838225,-122.296411,Starbucks,37.8366108,-122.2951415,Oakland International Airport,37.7125689,-122.2197428
83,Zmags,Copenhagen,DNK,55.6839208,12.571492,Starbucks,55.6837993,12.5707606,Copenhagen Airport,55.6180236,12.6507628
84,Zmags,London,GBR,51.5111369,-0.1247662,Starbucks Coffee,51.5123341,-0.1216241,London City Airport,51.5048437,0.049518
85,Loopt,Mountain View,USA,37.384717,-122.081625,Starbucks,37.387571,-122.083068,Norman Y. Mineta San Jose International Airport,37.3639472,-121.9289375
86,RealSelf,Seattle,USA,47.620716,-122.347533,Starbucks,47.62103949999999,-122.3507743,Seattle-Tacoma International Airport,47.4502499,-122.3088165
87,GeoSentric,Amsterdam,NLD,37.09024,-95.712891,United States,37.09024,-95.712891,Coffeyville Municipal Airport,37.0941308,-95.5716456
88,GameLayers,San Francisco,USA,37.803847,-122.402468,Starbucks,37.802887,-122.402977,Oakland International Airport,37.7125689,-122.2197428
89,Zoji,Seattle,USA,47.620716,-122.347533,Starbucks,47.62103949999999,-122.3507743,Seattle-Tacoma International Airport,47.4502499,-122.3088165
90,WEbook,New York,USA,38.984172,-77.095965,Starbucks,38.9843169,-77.0945739,Ronald Reagan Washington National Airport,38.851242,-77.04023149999999
91,Youku,Shanghai,CHN,31.2006566,121.4384701,Starbucks,31.19772,121.4369511,Shanghai Hongqiao International Airport,31.192209,121.334297
92,betNOW,London,GBR,51.511599,-0.126389,Starbucks Coffee,51.5123341,-0.1216241,London City Airport,51.5048437,0.049518
93,Jott,Seattle,USA,47.6139472,-122.327807,Starbucks Reserve Roastery,47.614039,-122.328079,Seattle-Tacoma International Airport,47.4502499,-122.3088165
94,Deezer,Paris,FRA,48.8780596,2.3283853,Starbucks,48.87645999999999,2.326762,Paris-Charles De Gaulle,49.0096906,2.5479245
95,TradeKing,Fort Lauderdale,USA,26.119102,-80.1343038,Starbucks,26.122237,-80.137046,Fort Lauderdale-Hollywood International Airport,26.0742344,-80.1506022
96,HubSpot,Cambridge,USA,42.375392,-71.118487,Starbucks Reserve,42.373333,-71.119214,Boston Logan International Airport,42.3656132,-71.0095602
97,BeliefNet,New York,USA,40.740231,-73.985433,Starbucks,40.74054,-73.98422099999999,John F. Kennedy International Airport,40.6413111,-73.77813909999999
98,HubPages,San Francisco,USA,37.7876952,-122.3991505,Starbucks,37.788673,-122.400874,San Francisco International Airport,37.6213129,-122.3789554
99,Ribbit,Mountain View,USA,37.386665,-122.084171,Starbucks,37.387571,-122.083068,Norman Y. Mineta San Jose International Airport,37.3639472,-121.9289375
100,WeShow,New York,USA,40.752516,-73.973072,Starbucks,40.751558,-73.97361699999999,John F. Kennedy International Airport,40.6413111,-73.77813909999999
101,RipCode,Austin,USA,30.402252,-97.748795,Starbucks,30.401952,-97.746882,Austin Executive Airport,30.4000778,-97.57384479999999
102,PlayFirst,San Francisco,USA,37.790346,-122.40185,Starbucks,37.7896675,-122.4019931,San Francisco International Airport,37.6213129,-122.3789554
103,Qik,Redwood City,USA,37.486368,-122.230116,Starbucks Reserve,37.486332,-122.229944,San Francisco International Airport,37.6213129,-122.3789554
104,Delve Networks,Seattle,USA,47.600818,-122.334117,Starbucks,47.601606,-122.333974,Seattle-Tacoma International Airport,47.4502499,-122.3088165
105,Bunchball,Redwood City,USA,37.3208403,-121.9479223,Starbucks,37.320964,-121.949113,Norman Y. Mineta San Jose International Airport,37.3639472,-121.9289375
106,SugarCRM,Cupertino,USA,37.323739,-122.014147,Starbucks,37.323404,-122.011309,Norman Y. Mineta San Jose International Airport,37.3639472,-121.9289375
107,Outspark,San Francisco,USA,37.775196,-122.419204,Starbucks,37.7770595,-122.417347,San Francisco International Airport,37.6213129,-122.3789554
108,yoonew,New York,USA,40.75362,-73.986557,Starbucks,40.754361,-73.987257,John F. Kennedy International Airport,40.6413111,-73.77813909999999
109,Roost,San Francisco,USA,37.7891288,-122.4020276,Starbucks,37.7884614,-122.4034092,San Francisco International Airport,37.6213129,-122.3789554
110,Zynga,San Francisco,USA,37.765158,-122.404234,Starbucks,37.7658845,-122.4034908,San Francisco International Airport,37.6213129,-122.3789554
111,clipsync,San Francisco,USA,37.2906027,-121.9317853,Starbucks,37.292828,-121.930574,Norman Y. Mineta San Jose International Airport,37.3639472,-121.9289375
112,Lookery,San Francisco,USA,37.788266,-122.403865,Starbucks,37.7884614,-122.4034092,San Francisco International Airport,37.6213129,-122.3789554
113,Sharetivity,Palo Alto,USA,37.550954,-122.315396,Starbucks,37.552243,-122.31386,San Francisco International Airport,37.6213129,-122.3789554
114,VisualCV,Reston,USA,38.9530391,-77.3479238,Starbucks,38.95201,-77.347456,Dulles International Airport,38.9531162,-77.45653879999999
115,RocketOn,South San Francisco,USA,37.65466,-122.40788,Starbucks,37.655213,-122.410901,San Francisco International Airport,37.6213129,-122.3789554
116,stickK,New York,USA,40.744837,-73.983843,Starbucks,40.744169,-73.983712,John F. Kennedy International Airport,40.6413111,-73.77813909999999
117,Snap Technologies,Pasadena,USA,34.146436,-118.153136,Starbucks,34.145914,-118.152542,Hollywood Burbank Airport,34.1983122,-118.3574036
118,Qype,Hamburg,DEU,53.54598,9.987181,Starbucks,53.5486926,9.987982599999999,Hamburg Airport,53.633622,9.9974128
119,MOG,Berkeley,USA,37.872222,-122.268403,Starbucks,37.870434,-122.266083,Oakland International Airport,37.7125689,-122.2197428
120,Social Gaming Network,Los Angeles,USA,37.446823,-122.161523,Starbucks,37.446791,-122.160561,San Francisco International Airport,37.6213129,-122.3789554
121,Social Gaming Network,Beverly Hills,USA,34.0698494,-118.4054182,Starbucks,34.0705899,-118.4023581,Los Angeles International Airport,33.9415889,-118.40853
122,Foneshow,Portland,USA,43.657058,-70.253959,Starbucks,43.657582,-70.254661,Portland International Jetport,43.6464785,-70.30969739999999
123,doubleTwist,San Francisco,USA,37.775196,-122.419204,Starbucks,37.7770595,-122.417347,San Francisco International Airport,37.6213129,-122.3789554
124,Grooveshark,Gainesville,USA,29.6502461,-82.3230981,Starbucks,29.649743,-82.32368699999999,Gainesville Regional Airport,29.6863121,-82.2766402
125,FameCast,Austin,USA,30.268735,-97.745209,Starbucks,30.268259,-97.74295599999999,Austin-Bergstrom International Airport,30.19747109999999,-97.66635289999999
126,Raptr,Mountain View,USA,37.40384,-122.07808,Starbucks,37.403017,-122.079089,Norman Y. Mineta San Jose International Airport,37.3639472,-121.9289375
127,HipLogic,Fremont,USA,37.5541073,-121.9756765,Starbucks,37.553362,-121.973852,Palo Alto Airport,37.4550078,-122.1107903
128,Inform Technologies,New York,USA,40.744639,-73.983963,Starbucks,40.744169,-73.983712,John F. Kennedy International Airport,40.6413111,-73.77813909999999
129,SendMe,San Francisco,USA,37.787126,-122.39783,Starbucks,37.784833,-122.39996,San Francisco International Airport,37.6213129,-122.3789554
130,Blog Talk Radio,New York,USA,40.757929,-73.985506,Starbucks,40.75766,-73.98508,John F. Kennedy International Airport,40.6413111,-73.77813909999999
131,Tiny Pictures,San Francisco,USA,37.781002,-122.406912,Starbucks,37.7841086,-122.4076337,San Francisco International Airport,37.6213129,-122.3789554
132,Issuu,Palo Alto,USA,37.4784804,-122.1514101,Starbucks,37.480185,-122.151151,Norman Y. Mineta San Jose International Airport,37.3639472,-121.9289375
133,Outbrain,New York City,USA,40.757929,-73.985506,Starbucks,40.75766,-73.98508,John F. Kennedy International Airport,40.6413111,-73.77813909999999
134,MoFuse,Providence,USA,41.826956,-71.408718,Starbucks,41.8252513,-71.4098695,T. F. Green Airport,41.7245271,-71.4304062
135,Phreesia,New York,USA,40.739794,-73.985878,Starbucks,40.740194,-73.986767,John F. Kennedy International Airport,40.6413111,-73.77813909999999
136,99designs,San Francisco,USA,37.7955307,-122.4005983,Starbucks,37.79510399999999,-122.400508,San Francisco International Airport,37.6213129,-122.3789554
137,Generate,New York,USA,40.7570972,-73.969821,Starbucks,40.75743,-73.969128,John F. Kennedy International Airport,40.6413111,-73.77813909999999
138,Ifbyphone,Chicago,USA,42.040851,-87.750643,Starbucks,42.040516,-87.751859,O'Hare International Airport,41.9741625,-87.9073214
139,Kareo,Irvine,USA,33.676444,-117.8587,Starbucks,33.6785656,-117.8624091,John Wayne Airport,33.6761901,-117.8674759
140,Tripology,New York,USA,40.746883,-73.983969,Starbucks,40.74850250000001,-73.9851667,John F. Kennedy International Airport,40.6413111,-73.77813909999999
141,Giant Realm,New York,USA,40.7566658,-73.9827553,Starbucks,40.75559,-73.984106,John F. Kennedy International Airport,40.6413111,-73.77813909999999
142,Global Roaming,Miami,USA,25.9690885,-80.1417742,Starbucks,25.9668838,-80.1422518,Miami International Airport,25.7958723,-80.2870509
143,DailyStrength,Los Angeles,USA,34.043948,-118.468204,Starbucks,34.045001,-118.467267,Los Angeles International Airport,33.9415889,-118.40853
144,Clarizen,San Mateo,USA,37.536044,-122.328401,Starbucks,37.534018,-122.326154,San Francisco International Airport,37.6213129,-122.3789554
145,Skydeck,Palo Alto,USA,37.5645375,-122.3254705,Starbucks,37.562897,-122.323927,San Francisco International Airport,37.6213129,-122.3789554
146,Next New Networks,New York,USA,40.743808,-73.983626,Starbucks,40.744169,-73.983712,John F. Kennedy International Airport,40.6413111,-73.77813909999999
147,Zuora,Foster City,USA,37.5596277,-122.2709868,Starbucks,37.56095,-122.273902,San Francisco International Airport,37.6213129,-122.3789554
148,Elastra,San Francisco,USA,37.791137,-122.391843,Starbucks,37.791311,-122.392268,San Francisco International Airport,37.6213129,-122.3789554
149,KidZui,San Diego,USA,37.09024,-95.712891,United States,37.09024,-95.712891,Coffeyville Municipal Airport,37.0941308,-95.5716456
150,Mytopia,Palo Alto,USA,34.007967,-118.489681,Starbucks,34.010735,-118.4915543,Los Angeles International Airport,33.9415889,-118.40853
151,Netbooks,San Francisco,USA,37.79471,-122.40195,Starbucks,37.794632,-122.402728,San Francisco International Airport,37.6213129,-122.3789554
152,7digital,London,GBR,51.5254,-0.083726,Starbucks Coffee,51.5262525,-0.08800519999999999,London City Airport,51.5048437,0.049518
153,Kannuu,Dallas,USA,32.9249424,-96.7679229,Starbucks,32.92510499999999,-96.769965,Dallas Love Field Airport,32.8481029,-96.8512063
154,The Echo Nest,Somerville,USA,42.396495,-71.12045,Starbucks,42.3956589,-71.1222928,Boston Logan International Airport,42.3656132,-71.0095602
155,Business Insider,New York,USA,40.73906,-73.990911,Starbucks,40.740442,-73.99122799999999,John F. Kennedy International Airport,40.6413111,-73.77813909999999
156,Perfect Market,Pasadena,USA,34.146436,-118.153136,Starbucks,34.145914,-118.152542,Hollywood Burbank Airport,34.1983122,-118.3574036
157,Zemanta,London,GBR,51.5141566,-0.0934254,Starbucks Coffee,51.5146144,-0.09615549999999999,London City Airport,51.5048437,0.049518
158,Zemanta,New York,USA,40.7387945,-73.9939213,Starbucks,40.737046,-73.996526,John F. Kennedy International Airport,40.6413111,-73.77813909999999
159,eYeka,Paris,FRA,48.856667,2.350987,Starbucks,48.8568201,2.3548934,Paris-Charles De Gaulle,49.0096906,2.5479245
160,Cellufun,New York,USA,40.73993,-73.9930489,Starbucks,40.740442,-73.99122799999999,John F. Kennedy International Airport,40.6413111,-73.77813909999999
161,Xoopit,San Francisco,USA,37.7617955,-122.4092704,Starbucks,37.7629128,-122.4104227,San Francisco International Airport,37.6213129,-122.3789554
162,Austhink Software,"Melbourne, Victoria",AUS,-37.813603,144.96616,Starbucks,-37.8135097,144.9663717,Melbourne Airport,-37.6690123,144.8410273
163,Cotendo,Sunnyvale,USA,37.504764,-122.259568,Starbucks,37.506495,-122.260987,San Francisco International Airport,37.6213129,-122.3789554
164,Cellfish,New York,USA,40.761855,-73.983754,Starbucks,40.762426,-73.98362999999999,John F. Kennedy International Airport,40.6413111,-73.77813909999999
165,SiBEAM,Sunnyvale,USA,37.390704,-122.03039,Starbucks,37.3882714,-122.0303535,Norman Y. Mineta San Jose International Airport,37.3639472,-121.9289375
166,mySupermarket,New York,USA,53.478714,-2.244824,Starbucks,53.47794649999999,-2.2456007,Manchester Airport,53.3588026,-2.2727303
167,mySupermarket,London,GBR,51.513671,-0.159205,Starbucks,51.5141728,-0.1612318,London City Airport,51.5048437,0.049518
168,Mojiva,New York,USA,40.7185614,-73.998662,Starbucks,40.718252,-73.999961,John F. Kennedy International Airport,40.6413111,-73.77813909999999
169,GitHub,San Francisco,USA,37.775196,-122.419204,Starbucks,37.7770595,-122.417347,San Francisco International Airport,37.6213129,-122.3789554
170,PluggedIn,Santa Monica,USA,34.007967,-118.489681,Starbucks,34.010735,-118.4915543,Los Angeles International Airport,33.9415889,-118.40853
171,Mirror42,Amsterdam,NLD,52.36702,4.896468,STARBUCKS The Bank Rembrandtplein,52.3659541,4.8977405,Amsterdam Airport Schiphol,52.3105386,4.7682744
172,Apture,San Francisco,USA,37.566042,-122.322954,Starbucks,37.562897,-122.323927,San Francisco International Airport,37.6213129,-122.3789554
173,MediaScrape,Montreal,CAN,45.545447,-73.639076,Starbucks,45.5431848,-73.63995249999999,Montréal-Pierre Elliott Trudeau International Airport,45.46568509999999,-73.7454814
174,InMobi,San Francisco,USA,37.4465496,-122.1709208,Starbucks,37.443643,-122.171738,San Francisco International Airport,37.6213129,-122.3789554
175,InMobi,Singapore,SGP,1.284082,103.851942,Starbucks,1.2842759,103.8520723,Singapore Changi Airport,1.3644202,103.9915308
176,TeachStreet,Seattle,USA,47.6171788,-122.3370801,Starbucks,47.615675,-122.336894,Seattle-Tacoma International Airport,47.4502499,-122.3088165
177,Serious Business,San Francisco,USA,37.7893215,-122.4013624,Starbucks,37.788673,-122.400874,San Francisco International Airport,37.6213129,-122.3789554
178,KnowledgeTree,Raleigh,USA,35.786975,-78.647003,Starbucks,35.788415,-78.64783299999999,Raleigh-Durham International Airport,35.88007899999999,-78.7879963
179,Center'd,Menlo Park,USA,37.452992,-122.185098,Starbucks,37.452214,-122.183867,San Francisco International Airport,37.6213129,-122.3789554
180,Pixsta,London,GBR,51.51819,-0.208979,Starbucks,51.5168329,-0.2058693,Heathrow Airport,51.4700223,-0.4542955
181,GodTube,Plano,USA,33.075067,-96.823962,Starbucks,33.074283,-96.82221000000001,Dallas/Fort Worth International Airport,32.8998091,-97.0403352
182,Yoono,San Francisco,USA,37.787204,-122.397884,Starbucks,37.789545,-122.397592,San Francisco International Airport,37.6213129,-122.3789554
183,OVGuide,Los Angeles,USA,34.052187,-118.243425,Starbucks,34.050984,-118.242338,Los Angeles International Airport,33.9415889,-118.40853
184,EatLime,San Francisco,USA,37.7749295,-122.4194155,Starbucks,37.7770595,-122.417347,San Francisco International Airport,37.6213129,-122.3789554
185,Tyfone,Portland,USA,45.5105,-122.674995,Starbucks,45.513219,-122.675386,Portland International Airport,45.58976939999999,-122.5950942
186,TuneUp,San Francisco,USA,37.7654195,-122.4119381,Starbucks,37.7629128,-122.4104227,San Francisco International Airport,37.6213129,-122.3789554
187,Stitcher,San Francisco,USA,37.775196,-122.419204,Starbucks,37.7770595,-122.417347,San Francisco International Airport,37.6213129,-122.3789554
188,TerraPass,San Francisco,USA,37.787445,-122.397847,Starbucks,37.789545,-122.397592,San Francisco International Airport,37.6213129,-122.3789554
189,Sometrics,El Segundo,USA,34.048857,-118.251343,Starbucks,34.048976,-118.251847,Los Angeles International Airport,33.9415889,-118.40853
190,Transpera,San Francisco,USA,37.785792,-122.405081,Starbucks,37.786139,-122.405723,San Francisco International Airport,37.6213129,-122.3789554
191,Fliqz,Emeryville,USA,37.848641,-122.289498,Starbucks,37.846608,-122.291652,Oakland International Airport,37.7125689,-122.2197428
192,Votigo,Boulder,USA,37.8919079,-122.1192743,Starbucks,37.891698,-122.120063,Oakland International Airport,37.7125689,-122.2197428
193,PurePlay,San Francisco,USA,37.775196,-122.419204,Starbucks,37.7770595,-122.417347,San Francisco International Airport,37.6213129,-122.3789554
194,GreenNote,Mather,USA,37.492685,-122.227765,Starbucks,37.490422,-122.225101,San Francisco International Airport,37.6213129,-122.3789554
195,M:Metrics,Seattle,USA,47.620716,-122.347533,Starbucks,47.62103949999999,-122.3507743,Seattle-Tacoma International Airport,47.4502499,-122.3088165
196,B-hive Networks,San Mateo,USA,37.536402,-122.325129,Starbucks,37.534018,-122.326154,San Francisco International Airport,37.6213129,-122.3789554
197,TeleFlip,Santa Monica,USA,34.01695,-118.451933,Starbucks,34.019731,-118.454721,Los Angeles International Airport,33.9415889,-118.40853
198,Crowd Science,Toronto,CAN,43.712309,-79.399538,Starbucks,43.711013,-79.3990309,Toronto Pearson International Airport,43.67771760000001,-79.6248197
199,WSO2,Palo Alto,USA,37.390918,-122.080843,Peet's Coffee,37.3909601,-122.0811103,Norman Y. Mineta San Jose International Airport,37.3639472,-121.9289375
200,BumpTop,Toronto,CAN,43.648786,-79.3777473,Starbucks,43.64928219999999,-79.3782595,Toronto Pearson International Airport,43.67771760000001,-79.6248197
201,Limbo,Burlingame,USA,37.580304,-122.343679,Starbucks,37.579393,-122.346144,San Francisco International Airport,37.6213129,-122.3789554
202,CohesiveFT,Chicago,USA,41.882401,-87.637816,Starbucks,41.88089100000001,-87.638897,Chicago Midway International Airport,41.78677589999999,-87.7521884
203,StartForce,San Francisco,USA,37.796164,-122.420903,Starbucks,37.796758,-122.422096,San Francisco International Airport,37.6213129,-122.3789554
204,Pivot,Cambridge,USA,42.364367,-71.078978,Starbucks,42.367459,-71.076111,Boston Logan International Airport,42.3656132,-71.0095602
205,Tapulous,Palo Alto,USA,37.444332,-122.161018,Starbucks,37.446791,-122.160561,San Francisco International Airport,37.6213129,-122.3789554
206,Codefast,San Jose,USA,37.316466,-121.873881,Starbucks,37.315392,-121.872396,Norman Y. Mineta San Jose International Airport,37.3639472,-121.9289375
207,HealthiNation,New York,USA,40.739341,-73.988357,Starbucks,40.740194,-73.986767,John F. Kennedy International Airport,40.6413111,-73.77813909999999
208,Boxee,New York,USA,40.745064,-73.992637,Starbucks,40.74525,-73.99086799999999,John F. Kennedy International Airport,40.6413111,-73.77813909999999
209,Bambuser,Stockholm,SWE,59.332788,18.064488,Starbucks,59.3322352,18.0686288,Bromma Stockholm Airport,59.354812,17.9427217
210,Trusera,Seattle,USA,47.617122,-122.305994,Starbucks,47.618084,-122.3038941,Seattle-Tacoma International Airport,47.4502499,-122.3088165
211,Keibi Technologies,San Francisco,USA,37.787646,-122.402759,Starbucks,37.7884614,-122.4034092,San Francisco International Airport,37.6213129,-122.3789554
212,BountyJobs,New York,USA,40.754211,-73.97917,Starbucks,40.753901,-73.97869299999999,John F. Kennedy International Airport,40.6413111,-73.77813909999999
213,VBS TV,Brooklyn,USA,40.720764,-73.957968,Starbucks Reserve,40.718005,-73.958219,John F. Kennedy International Airport,40.6413111,-73.77813909999999
214,FlyCast,Lancaster,USA,40.039353,-76.307448,Starbucks,40.03996739999999,-76.305441,Lancaster Airport,40.1188413,-76.2993031
215,My Damn Channel,New York,USA,40.754762,-73.988543,Starbucks,40.754361,-73.987257,John F. Kennedy International Airport,40.6413111,-73.77813909999999
216,My Damn Channel,El Segundo,USA,33.9019543,-118.3872018,Starbucks,33.902255,-118.383561,Los Angeles International Airport,33.9415889,-118.40853
217,Posterous,San Francisco,USA,37.775196,-122.419204,Starbucks,37.7770595,-122.417347,San Francisco International Airport,37.6213129,-122.3789554
218,Genbook,San Francisco,USA,37.789902,-122.4007791,Starbucks,37.7896675,-122.4019931,San Francisco International Airport,37.6213129,-122.3789554
219,Flowgram,San Francisco,USA,37.7710177,-122.4025976,Starbucks,37.770242,-122.403458,San Francisco International Airport,37.6213129,-122.3789554
220,Bitly,New York,USA,40.74034,-74.00721,Starbucks Reserve New York Roastery,40.7405581,-74.0059674,John F. Kennedy International Airport,40.6413111,-73.77813909999999
221,Involver,San Francisco,USA,37.788653,-122.401333,Starbucks,37.788673,-122.400874,San Francisco International Airport,37.6213129,-122.3789554
222,Blue Lava Technologies,Honolulu,USA,21.309419,-157.86318,Starbucks,21.3081809,-157.8622324,Daniel K. Inouye International Airport,21.3245132,-157.9250736
223,Streetline,San Francisco,USA,37.782085,-122.409747,Starbucks,37.7841086,-122.4076337,San Francisco International Airport,37.6213129,-122.3789554
224,Zendesk,San Francisco,USA,55.676294,12.568116,Starbucks,55.6767348,12.5689913,Copenhagen Airport,55.6180236,12.6507628
225,muzu tv,Dublin,IRL,53.341987,-6.262682,Starbucks,53.3417906,-6.263546499999999,Dublin Airport,53.42644809999999,-6.249909799999999
226,muzu tv,London,GBR,51.513678,-0.13063,Starbucks Coffee,51.5127331,-0.1333425,London City Airport,51.5048437,0.049518
227,muzu tv,New York,USA,40.757716,-73.972321,Starbucks,40.756836,-73.97283,John F. Kennedy International Airport,40.6413111,-73.77813909999999
228,LiquidTalk,Chicago,USA,41.831001,-87.626918,Starbucks,41.830872,-87.62674799999999,Chicago Midway International Airport,41.78677589999999,-87.7521884
229,BlogHer,Belmont,USA,37.491356,-122.228843,Starbucks,37.490422,-122.225101,San Francisco International Airport,37.6213129,-122.3789554
230,Lexy,San Francisco,USA,37.786906,-122.397672,Starbucks,37.784833,-122.39996,San Francisco International Airport,37.6213129,-122.3789554
231,CarbonFlow,San Francsico,USA,37.779097,-122.39365,Starbucks,37.777035,-122.393641,San Francisco International Airport,37.6213129,-122.3789554
232,CarbonFlow,Sydney,AUS,-33.867139,151.207114,Starbucks,-33.8652185,151.2054493,Sydney Airport,-33.9399228,151.1752764
233,Huddler,San Francisco,USA,37.7893215,-122.4013624,Starbucks,37.788673,-122.400874,San Francisco International Airport,37.6213129,-122.3789554
234,Prezi,Budapest,HUN,47.490346,19.059078,Starbucks Egyetem tér,47.490961,19.059113,Budapest Airport,47.4384587,19.2522958
235,Zorap,San Francisco,USA,37.775196,-122.419204,Starbucks,37.7770595,-122.417347,San Francisco International Airport,37.6213129,-122.3789554
236,Hunch,New York,USA,40.741179,-73.993182,Starbucks,40.741873,-73.993326,John F. Kennedy International Airport,40.6413111,-73.77813909999999
237,Local Marketers,Seattle,USA,47.5989681,-122.3329036,Starbucks,47.59907,-122.3326739,Seattle-Tacoma International Airport,47.4502499,-122.3088165
238,ngmoco,San Francisco,USA,37.7705096,-122.4015807,Starbucks,37.770242,-122.403458,San Francisco International Airport,37.6213129,-122.3789554
239,LeisureLogix,Tampa,USA,28.032975,-82.64611,Starbucks,28.0328913,-82.64787319999999,Tampa International Airport,27.9834776,-82.5370781
240,Likewise Software,Bellevue,USA,47.582658,-122.135282,Starbucks,47.581863,-122.1348989,Seattle-Tacoma International Airport,47.4502499,-122.3088165
241,ZManda,Sunnyvale,USA,37.3725243,-122.035963,Starbucks,37.37422,-122.032769,Norman Y. Mineta San Jose International Airport,37.3639472,-121.9289375
242,ELDR Media,Corte Madera,USA,37.9260091,-122.5162892,Starbucks,37.927706,-122.517131,San Rafael Airport,38.017187,-122.5215482
243,Occipital,Boulder,USA,40.018145,-105.278109,Starbucks,40.018733,-105.276647,Rocky Mountain Metropolitan Airport,39.90963780000001,-105.108089
244,Atigeo,Bellevue,USA,47.6174533,-122.2016685,Starbucks,47.6170443,-122.2021678,Seattle-Tacoma International Airport,47.4502499,-122.3088165
245,Lyft,San Francisco,USA,37.7899027,-122.4007846,Starbucks,37.7896675,-122.4019931,San Francisco International Airport,37.6213129,-122.3789554
246,Jumptap,Boston,USA,42.368633,-71.075305,Starbucks,42.367459,-71.076111,Boston Logan International Airport,42.3656132,-71.0095602
247,Jumptap,New York City,USA,40.751478,-73.980305,Starbucks,40.7520837,-73.9811661,John F. Kennedy International Airport,40.6413111,-73.77813909999999
248,GoodGuide,San Francisco,USA,37.7983181,-122.4000032,Starbucks,37.797718,-122.401083,San Francisco International Airport,37.6213129,-122.3789554
249,Lolapps,San Francisco,USA,37.7870923,-122.3999719,Starbucks,37.787764,-122.401087,San Francisco International Airport,37.6213129,-122.3789554
250,Hangout Industries,Boston,USA,42.352835,-71.0609612,Starbucks,42.3532457,-71.057698,Boston Logan International Airport,42.3656132,-71.0095602
251,Pixelpipe,San Francisco,USA,37.764395,-122.401024,Starbucks,37.7658845,-122.4034908,San Francisco International Airport,37.6213129,-122.3789554
252,Likewise Software,Bellevue,USA,47.582658,-122.135282,Starbucks,47.581863,-122.1348989,Seattle-Tacoma International Airport,47.4502499,-122.3088165
253,ZManda,Sunnyvale,USA,37.3725243,-122.035963,Starbucks,37.37422,-122.032769,Norman Y. Mineta San Jose International Airport,37.3639472,-121.9289375
254,ELDR Media,Corte Madera,USA,37.9260091,-122.5162892,Starbucks,37.927706,-122.517131,San Rafael Airport,38.017187,-122.5215482
255,Occipital,Boulder,USA,40.018145,-105.278109,Starbucks,40.018733,-105.276647,Rocky Mountain Metropolitan Airport,39.90963780000001,-105.108089
256,Atigeo,Bellevue,USA,47.6174533,-122.2016685,Starbucks,47.6170443,-122.2021678,Seattle-Tacoma International Airport,47.4502499,-122.3088165
257,Lyft,San Francisco,USA,37.7899027,-122.4007846,Starbucks,37.7896675,-122.4019931,San Francisco International Airport,37.6213129,-122.3789554
258,Jumptap,Boston,USA,42.368633,-71.075305,Starbucks,42.367459,-71.076111,Boston Logan International Airport,42.3656132,-71.0095602
259,Jumptap,New York City,USA,40.751478,-73.980305,Starbucks,40.7520837,-73.9811661,John F. Kennedy International Airport,40.6413111,-73.77813909999999
260,GoodGuide,San Francisco,USA,37.7983181,-122.4000032,Starbucks,37.797718,-122.401083,San Francisco International Airport,37.6213129,-122.3789554
261,Lolapps,San Francisco,USA,37.7870923,-122.3999719,Starbucks,37.787764,-122.401087,San Francisco International Airport,37.6213129,-122.3789554
262,Hangout Industries,Boston,USA,42.352835,-71.0609612,Starbucks,42.3532457,-71.057698,Boston Logan International Airport,42.3656132,-71.0095602
263,Pixelpipe,San Francisco,USA,37.764395,-122.401024,Starbucks,37.7658845,-122.4034908,San Francisco International Airport,37.6213129,-122.3789554
264,LiveHive Systems,Waterloo,CAN,43.474686,-80.521246,Starbucks,43.4763516,-80.5253082,Region of Waterloo International Airport,43.4557903,-80.3858475
265,Buzzd,New York,USA,40.733928,-73.991334,Starbucks,40.7350543,-73.98980399999999,John F. Kennedy International Airport,40.6413111,-73.77813909999999
266,Gowalla,Austin,USA,30.2729209,-97.7443863,Starbucks,30.271906,-97.74116099999999,Austin-Bergstrom International Airport,30.19747109999999,-97.66635289999999
267,PicApp,San Francisco,USA,37.79402,-122.4031242,Starbucks,37.792846,-122.404304,San Francisco International Airport,37.6213129,-122.3789554
268,Groupon,Chicago,USA,41.8965162,-87.643622,Starbucks,41.896293,-87.641201,Chicago Midway International Airport,41.78677589999999,-87.7521884
269,Finsphere,Bellevue,USA,47.614761,-122.198904,Starbucks,47.6142511,-122.1991481,Seattle-Tacoma International Airport,47.4502499,-122.3088165
270,Smule,San Francisco,USA,37.779624,-122.391236,Starbucks,37.777035,-122.393641,San Francisco International Airport,37.6213129,-122.3789554
271,One Season,San Francisco,USA,37.775196,-122.419204,Starbucks,37.7770595,-122.417347,San Francisco International Airport,37.6213129,-122.3789554
272,Reframe It,San Francisco,USA,37.782163,-122.400591,Starbucks,37.784833,-122.39996,San Francisco International Airport,37.6213129,-122.3789554
273,Poptent,Conshohocken,USA,40.0018743,-75.2747196,Starbucks,40.002228,-75.274686,Philadelphia International Airport,39.8743959,-75.2424229
274,Nexenta Systems,Santa Clara,USA,37.444098,-122.161287,Starbucks,37.446791,-122.160561,San Francisco International Airport,37.6213129,-122.3789554
275,Vuclip,New Delhi,IND,28.635308,77.22496,Amalgamated Bean Coffee Trading Co Ltd,28.632768,77.222728,Indira Gandhi International Airport,28.5561624,77.0999578
276,Formspring,San Francisco,USA,39.9052263,-86.0547016,Starbucks,39.905484,-86.051715,Noblesville Airport-I80,40.0036903,-85.9644052
277,For Your Imagination,New York,USA,40.744594,-73.989698,Starbucks,40.743839,-73.988846,John F. Kennedy International Airport,40.6413111,-73.77813909999999
278,ReverbNation,New York,USA,40.718888,-74.001169,Starbucks,40.718252,-73.999961,John F. Kennedy International Airport,40.6413111,-73.77813909999999
279,SureSpeak,Chicago,USA,41.889183,-87.632519,Starbucks,41.89016000000001,-87.63125099999999,Chicago Midway International Airport,41.78677589999999,-87.7521884
280,Pumant,Birmingham,GBR,52.482932,-1.893621,Starbucks,52.48035530000001,-1.8970158,Birmingham Airport,52.45238209999999,-1.7435071
281,DocVerse,San Francisco,USA,37.788115,-122.397141,Starbucks,37.789545,-122.397592,San Francisco International Airport,37.6213129,-122.3789554
282,Yipit,New York,USA,40.744618,-73.987764,Starbucks,40.7449904,-73.9868247,John F. Kennedy International Airport,40.6413111,-73.77813909999999
283,Open-Xchange,Olpe,DEU,51.029415,7.850863,Kaufland Olpe,51.0289112,7.850842900000001,Plettenberg-Hüinghausen Airport,51.191975,7.7907261
284,TRX Systems,Greenbelt,USA,38.9916581,-76.879257,Starbucks,38.992202,-76.87811599999999,Ronald Reagan Washington National Airport,38.851242,-77.04023149999999
285,DeepDyve,Sunnyvale,USA,37.377787,-122.029217,Starbucks,37.37645,-122.031566,Norman Y. Mineta San Jose International Airport,37.3639472,-121.9289375
286,Trustpilot,Copenhagen V,DNK,55.6739617,12.5605372,Starbucks,55.6728822,12.5642771,Copenhagen Airport,55.6180236,12.6507628
287,Movirtu,London,GBR,51.5499708,-0.1815999,Starbucks,51.5477021,-0.1825006,Heathrow Airport,51.4700223,-0.4542955
288,WiChorus,San Jose,USA,37.409096,-121.943191,Starbucks,37.406443,-121.941791,Norman Y. Mineta San Jose International Airport,37.3639472,-121.9289375
289,Momail,Stockholm,SWE,59.3359806,18.075506,Starbucks,59.3343654,18.0710073,Bromma Stockholm Airport,59.354812,17.9427217
290,Synthesio,New York,USA,40.7431836,-73.9935011,Starbucks,40.743592,-73.992076,John F. Kennedy International Airport,40.6413111,-73.77813909999999
291,People Capital,New York,USA,40.756054,-73.986951,Starbucks,40.7567274,-73.9858802,John F. Kennedy International Airport,40.6413111,-73.77813909999999
292,expressor software,Burlington,USA,42.485102,-71.211568,Starbucks,42.4863948,-71.2121944,Boston Logan International Airport,42.3656132,-71.0095602
293,mFoundry,Larkspur,USA,37.862592,-122.493561,Starbuck Canvas Works,37.8634803,-122.4919706,San Rafael Airport,38.017187,-122.5215482
294,Viigo,Toronto,CAN,43.6490004,-79.3723339,Starbucks,43.6487479,-79.37251189999999,Billy Bishop Toronto City Airport,43.6284819,-79.3959577
295,Modelinia,New York,USA,40.739867,-73.990024,Starbucks,40.740442,-73.99122799999999,John F. Kennedy International Airport,40.6413111,-73.77813909999999
296,StockTwits,San Diego,USA,32.7161896,-117.168697,Starbucks,32.7159756,-117.1688525,San Diego International Airport,32.7338006,-117.1933038
297,Rudder,Houston,USA,29.739322,-95.444747,Starbucks,29.741458,-95.447541,William P. Hobby Airport,29.6459077,-95.27690539999999
298,Proclivity Systems,New York,USA,40.738954,-73.992,Starbucks,40.740442,-73.99122799999999,John F. Kennedy International Airport,40.6413111,-73.77813909999999
299,IMedExchange,Seattle,USA,47.6136485,-122.3371174,Starbucks,47.61386599999999,-122.336973,Seattle-Tacoma International Airport,47.4502499,-122.3088165
300,BeliefNetworks,New York,USA,40.746944,-73.983926,Starbucks,40.74850250000001,-73.9851667,John F. Kennedy International Airport,40.6413111,-73.77813909999999
301,Robotgalaxy,New York,USA,40.737216,-73.990947,Starbucks,40.73634699999999,-73.99107599999999,John F. Kennedy International Airport,40.6413111,-73.77813909999999
302,Sonopia,Menlo Park,USA,37.477944,-122.151234,Starbucks,37.480185,-122.151151,Norman Y. Mineta San Jose International Airport,37.3639472,-121.9289375
303,3Leaf,Santa Clara,USA,37.381034,-121.971487,Starbucks,37.3811059,-121.9744109,Norman Y. Mineta San Jose International Airport,37.3639472,-121.9289375
304,Fuego Nation,San Francisco,USA,37.775196,-122.419204,Starbucks,37.7770595,-122.417347,San Francisco International Airport,37.6213129,-122.3789554
305,Dragonfly,New York,USA,40.756054,-73.986951,Starbucks,40.7567274,-73.9858802,John F. Kennedy International Airport,40.6413111,-73.77813909999999
306,Aquest Systems,Sunnyvale,USA,37.390956,-122.032795,Starbucks,37.3882714,-122.0303535,Norman Y. Mineta San Jose International Airport,37.3639472,-121.9289375
307,Double Fusion,San Francisco,USA,37.7887135,-122.3927145,Starbucks,37.788417,-122.393662,San Francisco International Airport,37.6213129,-122.3789554
308,5th Finger,San Francisco,USA,37.7900992,-122.4021988,Starbucks,37.7896675,-122.4019931,San Francisco International Airport,37.6213129,-122.3789554
309,Xumii,San Mateo,USA,37.563585,-122.324621,Starbucks,37.562897,-122.323927,San Francisco International Airport,37.6213129,-122.3789554
310,ScaleMP,Cupertino,USA,37.3229727,-122.0385792,Starbucks,37.3239724,-122.03642,Norman Y. Mineta San Jose International Airport,37.3639472,-121.9289375
311,Nangate,New Delhi,IND,28.53536,77.2419522,Starbucks,28.5341408,77.2429429,Indira Gandhi International Airport,28.5561624,77.0999578
312,Vocalocity,Atlanta,USA,33.7812614,-84.3675617,Starbucks,33.780223,-84.368832,Hartsfield-Jackson Atlanta International Airport,33.6407282,-84.4277001
313,Certess,Campbell,USA,37.295516,-121.960102,Starbucks,37.2946671,-121.9627709,Norman Y. Mineta San Jose International Airport,37.3639472,-121.9289375
314,Heyzap,San Francisco,USA,37.7905538,-122.4041485,Starbucks,37.79067,-122.403891,San Francisco International Airport,37.6213129,-122.3789554
315,Meez,San Francisco,USA,37.785271,-122.397582,Starbucks,37.784833,-122.39996,San Francisco International Airport,37.6213129,-122.3789554
316,PEX Card,New York,USA,40.752539,-73.987871,Starbucks,40.753668,-73.988402,John F. Kennedy International Airport,40.6413111,-73.77813909999999
317,Open Kernel Labs,Chicago,USA,41.878984,-87.637,Starbucks,41.878874,-87.63592899999999,Chicago Midway International Airport,41.78677589999999,-87.7521884
318,Xangati,San Jose,USA,37.32136,-122.014616,Starbucks,37.323404,-122.011309,Norman Y. Mineta San Jose International Airport,37.3639472,-121.9289375
319,Neuralitic Systems,"MontrÃ©al, Qc",CAN,45.5044288,-73.5570651,Starbucks,45.5054333,-73.5582776,Montréal-Pierre Elliott Trudeau International Airport,45.46568509999999,-73.7454814
320,Mobius Microsystems,Sunnyvale,USA,37.377787,-122.029217,Starbucks,37.37645,-122.031566,Norman Y. Mineta San Jose International Airport,37.3639472,-121.9289375
321,Appscio,Freedom,USA,36.9397206,-121.7768449,Starbucks,36.940026,-121.775378,Watsonville Municipal Airport,36.9342609,-121.7878176
322,Comixology,New York,USA,40.740512,-73.987794,Starbucks,40.740194,-73.986767,John F. Kennedy International Airport,40.6413111,-73.77813909999999
323,Apprion,Mountain View,USA,37.417485,-122.075789,Starbucks,37.415785,-122.077546,Norman Y. Mineta San Jose International Airport,37.3639472,-121.9289375
324,Vantrix,"Montreal, Quebec",CAN,45.4949481,-73.5740025,Starbucks,45.4966371,-73.5729952,Montréal-Pierre Elliott Trudeau International Airport,45.46568509999999,-73.7454814
325,Quantum Secure,San Jose,USA,37.367838,-121.915594,Starbucks,37.37096289999999,-121.9171986,Norman Y. Mineta San Jose International Airport,37.3639472,-121.9289375
326,KODA,San Francisco,USA,37.788796,-122.40971,Starbucks,37.789146,-122.408456,San Francisco International Airport,37.6213129,-122.3789554
327,Cyan,Petaluma,USA,38.2743225,-122.6670066,Starbucks,38.275984,-122.668159,Gnoss Field,38.1418486,-122.5568584
328,Medio,Seattle,USA,47.611827,-122.331308,Starbucks Reserve Roastery,47.614039,-122.328079,Seattle-Tacoma International Airport,47.4502499,-122.3088165
329,Socialize,San Francisco,USA,38.88521,-76.998641,Starbucks,38.88364199999999,-76.99518599999999,Ronald Reagan Washington National Airport,38.851242,-77.04023149999999
330,Etology,Foster City,USA,37.561111,-122.270487,Starbucks,37.559204,-122.2673,San Francisco International Airport,37.6213129,-122.3789554
331,Casabi,Campbell,USA,37.293687,-121.934573,Starbucks,37.294733,-121.930948,Norman Y. Mineta San Jose International Airport,37.3639472,-121.9289375
332,Casabi,Paris,FRA,48.8722501,2.3283343,Starbucks Coffee,48.87024719999999,2.3273903,Paris-Charles De Gaulle,49.0096906,2.5479245
333,Space-Time Insight,San Mateo,USA,37.555773,-122.27977,Starbucks,37.556934,-122.27598,San Francisco International Airport,37.6213129,-122.3789554
334,Verve Mobile,Encinitas,USA,33.03898,-117.293385,Starbucks,33.040176,-117.292862,McClellan-Palomar Airport,33.1268216,-117.2792408
335,WANdisco,Sheffield,GBR,53.3800107,-1.4629301,Starbucks Coffee,53.3803827,-1.4679516,Coal Aston,53.3047219,-1.4310337
336,Mashup Arts,Halifax,CAN,43.648786,-79.3777473,Starbucks,43.64928219999999,-79.3782595,Toronto Pearson International Airport,43.67771760000001,-79.6248197
337,Tinychat,Glen Cove,USA,42.3756409,-72.5196907,Starbucks,42.376776,-72.51961899999999,Northampton Airport - 7B2,42.328042,-72.6127894
338,Punch Entertainment,Palo Alto,USA,37.4233698,-122.0986859,Starbucks,37.4218,-122.096419,Norman Y. Mineta San Jose International Airport,37.3639472,-121.9289375
339,YOUnite,Mountain View,USA,37.388077,-122.08316,Starbucks,37.387571,-122.083068,Norman Y. Mineta San Jose International Airport,37.3639472,-121.9289375
340,Geewa,Prague 8,CZE,50.0938491,14.4505336,Starbucks,50.0939253,14.4517953,Václav Havel Airport Prague,50.10179100000001,14.2631811
341,L4 Mobile,Seattle,USA,47.676762,-122.2049192,Starbucks,47.675855,-122.206581,Boeing Field,47.5281657,-122.3018264
342,Crispy Gamer,New York,USA,40.750597,-73.985273,Starbucks,40.751009,-73.987141,John F. Kennedy International Airport,40.6413111,-73.77813909999999
343,Optify,Seattle,USA,47.603364,-122.333359,Starbucks,47.6041558,-122.3308269,Seattle-Tacoma International Airport,47.4502499,-122.3088165
344,Evostor,Campbell,USA,37.232902,-121.964385,Starbucks Reserve,37.235607,-121.964498,Norman Y. Mineta San Jose International Airport,37.3639472,-121.9289375
345,Jama Software,Portland,USA,45.5309644,-122.68038,Starbucks,45.52990399999999,-122.6825529,Portland International Airport,45.58976939999999,-122.5950942
346,iPharro Media,New York,USA,40.7438356,-73.9890149,Starbucks,40.743839,-73.988846,John F. Kennedy International Airport,40.6413111,-73.77813909999999
347,Rebit,Longmont,USA,40.146898,-105.1350397,Starbucks,40.147331,-105.13144,Boulder Municipal Airport,40.0372597,-105.22812
348,SpaBooker,New York,USA,40.738567,-73.987199,Starbucks,40.738003,-73.988502,John F. Kennedy International Airport,40.6413111,-73.77813909999999
349,Zinwave,Woodland Hills,USA,34.185596,-118.596228,Starbucks,34.187788,-118.599239,Santa Monica Airport,34.0178143,-118.4473286
350,Infobright,"Toronto, Ontario",CAN,43.6490631,-79.3749698,Starbucks,43.6487479,-79.37251189999999,Toronto Pearson International Airport,43.67771760000001,-79.6248197
351,Transfer To,Singapore,SGP,1.3006925,103.8575356,Starbucks,1.3011894,103.8572771,Singapore Changi Airport,1.3644202,103.9915308
352,Transfer To,Palo Alto,USA,40.705255,-74.010983,Starbucks,40.705162,-74.01133,John F. Kennedy International Airport,40.6413111,-73.77813909999999
353,GameChanger Media,New York,USA,40.7078343,-74.0136605,Starbucks,40.706806,-74.012968,John F. Kennedy International Airport,40.6413111,-73.77813909999999
354,Z2Live,Seattle,USA,47.6103008,-122.3399782,Starbucks,47.6090095,-122.3399417,Seattle-Tacoma International Airport,47.4502499,-122.3088165
355,Ranker,Los Angeles,USA,34.1012181,-118.325739,Starbucks,34.101484,-118.3265,Los Angeles International Airport,33.9415889,-118.40853
356,Musicmetric,London,GBR,51.5253765,-0.0856982,Starbucks Coffee,51.5262525,-0.08800519999999999,London City Airport,51.5048437,0.049518
357,Openbravo,Barcelona,ESP,41.3935324,2.1660785,Starbucks,41.3929045,2.1654015,Josep Tarradellas Barcelona-El Prat Airport,41.297445,2.0832941
358,Newser,Chicago,USA,41.879535,-87.624333,Starbucks,41.879435,-87.624625,Chicago Midway International Airport,41.78677589999999,-87.7521884
359,Factery,Menlo Park,USA,37.4484914,-122.1802812,Starbucks,37.4509304,-122.178747,San Francisco International Airport,37.6213129,-122.3789554
360,Busca Corp,La Jolla,USA,32.841791,-117.274602,Starbucks,32.842596,-117.271991,San Diego International Airport,32.7338006,-117.1933038
361,Milo,Palo Alto,USA,37.444531,-122.163352,Starbucks,37.446791,-122.160561,San Francisco International Airport,37.6213129,-122.3789554
362,Kidlandia,SAN FRANCISCO,USA,37.8017938,-122.4043215,Starbucks,37.802887,-122.402977,San Francisco International Airport,37.6213129,-122.3789554
363,textPlus,Marina del Rey,USA,33.984469,-118.43679,Starbucks,33.985106,-118.43958,Los Angeles International Airport,33.9415889,-118.40853
364,VKernel Corporation,Boston,USA,42.3497366,-71.0491901,Starbucks,42.3514618,-71.0504454,Boston Logan International Airport,42.3656132,-71.0095602
365,Shareaholic,Boston,USA,42.3647559,-71.1032591,Starbucks,42.365628,-71.10375,Boston Logan International Airport,42.3656132,-71.0095602
366,Sand 9,Cambridge,USA,42.3488891,-71.1068046,Starbucks,42.35115330000001,-71.1089588,Boston Logan International Airport,42.3656132,-71.0095602
367,First Coverage,"Toronto, ON",CAN,43.6878093,-79.3958388,Starbucks,43.68851189999999,-79.39393,Toronto Pearson International Airport,43.67771760000001,-79.6248197
368,First Coverage,Boston,USA,42.356931,-71.053991,Starbucks,42.355905,-71.05275999999999,Boston Logan International Airport,42.3656132,-71.0095602
369,Bigfoot Networks,Redwood City,USA,37.536402,-122.325129,Starbucks,37.534018,-122.326154,San Francisco International Airport,37.6213129,-122.3789554
370,Firm58,Chicago,USA,41.879641,-87.6425816,Starbucks,41.8794042,-87.6408727,Chicago Midway International Airport,41.78677589999999,-87.7521884
371,Firm58,New York,USA,40.766734,-73.988265,Starbucks,40.76915,-73.988233,John F. Kennedy International Airport,40.6413111,-73.77813909999999
372,Elanti Systems,Somerset,USA,40.535316,-74.521435,Micro starbucks,40.5370435,-74.5192521,Princeton Airport,40.39884079999999,-74.6585197
373,Marketcetera,San Francisco,USA,37.788864,-122.4008487,Starbucks,37.788673,-122.400874,San Francisco International Airport,37.6213129,-122.3789554
374,Garlik,New York,USA,40.7615818,-73.970624,Starbucks,40.761316,-73.96903499999999,John F. Kennedy International Airport,40.6413111,-73.77813909999999
375,Saavn,New York,USA,40.743877,-73.98618,Starbucks,40.7449904,-73.9868247,John F. Kennedy International Airport,40.6413111,-73.77813909999999
376,Social Solutions,Baltimore,USA,39.281734,-76.581864,Starbucks,39.280753,-76.580356,Baltimore/Washington International Thurgood Marshall Airport,39.1774042,-76.6683922
377,PlantSense,San Francisco,USA,37.7697623,-122.4183929,Starbucks,37.7700385,-122.4161985,San Francisco International Airport,37.6213129,-122.3789554
378,My-Hammer,Berlin,DEU,52.5092312,13.3883606,Starbucks,52.5111048,13.3899791,Berlin-Tegel Airport,52.5588327,13.2884374
379,The Resumator,Pittsburgh,USA,40.438423,-80.001933,Starbucks,40.440254,-80.002256,Allegheny County Airport,40.3523988,-79.92704619999999
380,OutSmart Power Systems,Natick,USA,42.2968126,-71.3876282,Starbucks,42.298067,-71.38710499999999,Norwood Memorial Airport,42.1919985,-71.17662179999999
381,ShopSavvy,San Francsico,USA,37.7770719,-122.3966273,Starbucks,37.777035,-122.393641,San Francisco International Airport,37.6213129,-122.3789554
382,BeeTV,Milan,ITA,45.4636889,9.1881408,STARBUCKS RESERVE® ROASTERY Milano,45.4648798,9.186104499999999,Milan Linate Airport,45.452176,9.276308
383,GameGround,New York,USA,40.756054,-73.986951,Starbucks,40.7567274,-73.9858802,John F. Kennedy International Airport,40.6413111,-73.77813909999999
384,Althea Systems,Bangalore,IND,12.9349604,77.6136847,Starbucks Coffee House,12.9351626,77.6134972,Jakkur Aerodrome,13.0772746,77.5935938
385,isango!,London,GBR,51.519816,-0.1361616,Starbucks Coffee,51.52070879999999,-0.134725,London City Airport,51.5048437,0.049518
386,Ykone,Paris,FRA,48.8566667,2.3509871,Starbucks,48.8568201,2.3548934,Paris-Charles De Gaulle,49.0096906,2.5479245
387,Moviepilot,Los Angeles,USA,34.0522342,-118.2436849,Starbucks,34.050984,-118.242338,Los Angeles International Airport,33.9415889,-118.40853
388,Forterra Systems,San Mateo,USA,37.561576,-122.284173,Starbucks,37.5590258,-122.2830814,San Francisco International Airport,37.6213129,-122.3789554
389,FastSoft,Pasadena,USA,34.142973,-118.140553,Starbucks,34.145683,-118.143233,Hollywood Burbank Airport,34.1983122,-118.3574036
390,Layar,Amsterdam,NLD,52.3657578,4.8928722,STARBUCKS The Bank Rembrandtplein,52.3659541,4.8977405,Amsterdam Airport Schiphol,52.3105386,4.7682744
391,Global Fitness Media,Los Angeles,USA,34.054318,-118.462876,Starbucks,34.053737,-118.466101,Los Angeles International Airport,33.9415889,-118.40853
392,Accellos,Colorado Springs,USA,38.833716,-104.826256,Starbucks,38.8336121,-104.8266909,Colorado Springs Airport,38.801712,-104.7026039
393,Pontis,Capital Federal,ARG,-34.5631882,-58.4541925,Starbucks,-34.5628359,-58.4562772,Aeroparque Internacional Jorge Newbery,-34.5580305,-58.4170088
394,Omni-ID,Foster City,USA,37.561111,-122.270487,Starbucks,37.559204,-122.2673,San Francisco International Airport,37.6213129,-122.3789554
395,Edgeware,STOCKHOLM,SWE,59.3326694,18.0523253,Starbucks Stockholm Central Station,59.3305951,18.057374,Bromma Stockholm Airport,59.354812,17.9427217
396,Edgeware,San Jose,USA,37.3403284,-121.8864433,Starbucks,37.33738,-121.888408,Norman Y. Mineta San Jose International Airport,37.3639472,-121.9289375
397,FireScope,Sydney,AUS,-33.867139,151.207114,Starbucks,-33.8652185,151.2054493,Sydney Airport,-33.9399228,151.1752764
398,High Gear Media,Menlo Park,USA,37.445335,-122.15833,Starbucks,37.446791,-122.160561,San Francisco International Airport,37.6213129,-122.3789554
399,ChallengePost,New York,USA,40.7408042,-74.00717,Starbucks Reserve New York Roastery,40.7405581,-74.0059674,John F. Kennedy International Airport,40.6413111,-73.77813909999999
400,DeciZium,San Jose,USA,37.337756,-121.89435,Starbucks,37.335283,-121.892859,Norman Y. Mineta San Jose International Airport,37.3639472,-121.9289375
401,StyleCaster,New York City,USA,40.7450497,-73.9900984,Starbucks,40.74525,-73.99086799999999,John F. Kennedy International Airport,40.6413111,-73.77813909999999
402,Teambox,Barcelona,ESP,41.4063346,2.1920231,Starbucks,41.4049021,2.1912858,Josep Tarradellas Barcelona-El Prat Airport,41.297445,2.0832941
403,Testplant,London,GBR,51.517356,-0.1037742,Starbucks,51.5165386,-0.1033868,London City Airport,51.5048437,0.049518
404,Testplant,Boulder,USA,40.0230047,-105.2532841,Starbucks,40.021885,-105.25653,Rocky Mountain Metropolitan Airport,39.90963780000001,-105.108089
405,Clavis Technology,Cambridge,USA,42.3626626,-71.084153,Starbucks,42.363041,-71.08592999999999,Boston Logan International Airport,42.3656132,-71.0095602
406,Tiny Speck,Vancouver,CAN,49.2824551,-123.109217,Starbucks,49.2844427,-123.108513,Vancouver International Airport,49.1966913,-123.1815123
