,name,city,country,latitude,longitude,starbucks,starbucks_lat,starbucks_lon
0,Wetpaint,Seattle,USA,47.603122,-122.333253,Starbucks,47.6041558,-122.3308269
1,Wetpaint,New York,USA,40.7237306,-73.9964312,Starbucks,40.722553,-73.997942
2,Geni,West Hollywood,USA,34.090368,-118.393064,,,
3,Slacker,San Diego,USA,33.022176,-117.081406,Starbucks,33.0234909,-117.0818371
4,Joost,New York,USA,40.7464969,-74.0094471,,,
5,Babelgum,London,GBR,53.344104,-6.267494,Starbucks Crampton Quay,53.346055,-6.2623945
6,Mahalo,Culver City,USA,34.017606,-118.487267,Starbucks,34.0172403,-118.489752
7,Kyte,San Francisco,USA,37.788482,-122.409173,Starbucks,37.789146,-122.408456
8,Veoh,San Diego,USA,32.902266,-117.20834,,,
9,Wesabe,San Francisco,USA,37.793148,-122.402567,Starbucks,37.792183,-122.40377
10,Jingle Networks,New York,USA,37.480999,-122.173887,,,
11,Jangl SMS,Pleasanton,USA,37.697805,-121.907768,,,
12,Jajah,Mountain View,USA,37.4233896,-122.0899512,,,
13,blogTV,Ramat Gan,ISR,31.046051,34.851612,,,
14,AdaptiveBlue,NYC,USA,40.801358,-74.3372,Starbucks,40.798594,-74.340772
15,Pando Networks,New York,USA,40.722655,-73.99873,Starbucks,40.722553,-73.997942
16,Livestream,New York,USA,40.726155,-73.995625,Starbucks,40.727212,-73.995485
17,Ustream,San Francisco,USA,37.392936,-122.07948,,,
18,GrandCentral,Fremont,USA,37.465645,-121.932202,,,
19,YouTube,San Bruno,USA,37.627971,-122.426804,Starbucks,37.62572919999999,-122.4260703
20,CastTV,San Francisco,USA,37.780716,-122.393913,Starbucks,37.77867,-122.396701
21,SellABand,46395 Bocholt,DEU,51.808933,6.553452,,,
22,SodaHead,Encino,USA,37.269175,-119.306607,,,
23,Revision3,San Francisco,USA,37.757758,-122.388243,,,
24,Funny Or Die,San Mateo,USA,37.421621,-122.137444,,,
25,EQO,Vancouver,CAN,49.263588,-123.138565,Starbucks,49.26313769999999,-123.1388466
26,iSkoot,Cambridge,USA,42.375392,-71.118487,Starbucks Reserve,42.373333,-71.119214
27,iSkoot,San Francisco,USA,37.780134,-122.396744,Starbucks,37.77867,-122.396701
28,Pageflakes,San Francisco,USA,37.758113,-122.414689,,,
29,Netvibes,Paris,FRA,48.870806,2.34668,Starbucks,48.8706754,2.3469117
30,FeedBurner,Chicago,USA,41.889474,-87.628912,Starbucks,41.89016000000001,-87.63125099999999
31,WeFi,Fairfax,USA,37.09024,-95.712891,United States,37.09024,-95.712891
32,TVtrip,Paris,FRA,48.856667,2.350987,Starbucks,48.8568201,2.3548934
33,Bebo,San Francisco,USA,37.782103,-122.401116,Starbucks,37.784833,-122.39996
34,RockYou,Redwood City,USA,37.484619,-122.206893,,,
35,FlickIM,Berkeley,USA,37.870744,-122.269259,Starbucks,37.868791,-122.268212
36,Loomia,San Francisco,USA,37.796396,-122.404869,Starbucks,37.794632,-122.402728
37,Terabitz,Palo Alto,USA,37.437328,-122.159928,Peet's Coffee,37.4380642,-122.159322
38,Meebo,Mountain View,USA,37.393679,-122.079017,,,
39,Newsvine,Seattle,USA,47.618599,-122.358484,,,
40,Eventbrite,San Francisco,USA,37.779507,-122.39071,Starbucks,37.777035,-122.393641
41,coComment,Geneva,CHE,46.20381,6.139959,,,
42,Hotelicopter,Charlottesville,USA,38.030823,-78.48158,,,
43,Zvents,San Mateo,USA,37.553121,-122.301534,,,
44,Eventful,San Diego,USA,32.872081,-117.206292,,,
45,Seesmic,San Francisco,USA,37.775196,-122.419204,Starbucks,37.7770595,-122.417347
46,ooma,Palo Alto,USA,37.451958,-122.116026,,,
47,Flixster,San Francisco,USA,37.766909,-122.406676,Starbucks,37.7658845,-122.4034908
48,oDesk,Redwood City,USA,37.479952,-122.178557,,,
49,GoingOn,San Francisco,USA,37.782263,-122.392142,,,
50,spigit,Pleasanton,USA,37.6637279,-121.8731805,Starbucks,37.660676,-121.875909
51,spigit,Reston,USA,38.9590083,-77.3592746,Starbucks,38.958891,-77.35914
52,spigit,London,GBR,51.5170385,-0.1394759,Starbucks Coffee,51.514458,-0.142504
53,Bazaarvoice,Austin,USA,30.407545,-97.717667,,,
54,Indeed,Stamford,USA,41.038155,-73.558082,,,
55,Jaxtr,Menlo Park,USA,37.451026,-122.18676,Starbucks,37.452214,-122.183867
56,Respectance,San Mateo,USA,37.55909,-122.321836,,,
57,PeerMe,Mountain View,USA,37.419819,-122.090188,,,
58,Curse,San Francisco,USA,37.787092,-122.399972,Starbucks,37.787764,-122.401087
59,Phonezoo,Sunnyvale,USA,37.386376,-121.991471,,,
60,Vuze,San Mateo,USA,37.4858654,-122.2262606,Starbucks Reserve,37.486332,-122.229944
61,PodTech,Palo Alto,USA,37.408256,-122.154176,,,
62,NowPublic,Vancouver,CAN,49.283376,-123.103986,Starbucks,49.2844427,-123.108513
63,Crackle,Culver City,USA,34.017506,-118.401579,,,
64,Rebtel,Nacka Strand,SWE,59.3167843,18.1582777,,,
65,BuddyTV,Seattle,USA,47.61968,-122.356756,,,
66,Retrevo,Sunnyvale,USA,37.368594,-122.034021,Starbucks,37.3686003,-122.0356701
67,Tangler,Mountain View,USA,37.386665,-122.084171,Starbucks,37.387571,-122.083068
68,Nimbuzz,Capelle a/d IJssel,NLD,51.9122575,4.5464658,,,
69,TalkPlus,San Mateo,USA,37.553743,-122.300246,,,
70,obopay,Redwood City,USA,37.524729,-122.258037,,,
71,PermissionTV,Waltham,USA,42.417268,-71.258466,,,
72,IMVU,Mountain View,USA,37.3927975,-122.0727749,,,
73,KnockaTV,,ISR,31.046051,34.851612,,,
74,GreatCall,San Diego,USA,32.964294,-117.265191,,,
75,Revver,Los Angeles,USA,34.052187,-118.243425,Starbucks,34.050984,-118.242338
76,Flock,Menlo Park,USA,37.491356,-122.228843,Starbucks,37.490422,-122.225101
77,Dropbox,San Francisco,USA,37.7909427,-122.4084994,Starbucks,37.789348,-122.406831
78,Kongregate,San Francisco,USA,37.786942,-122.401245,Starbucks,37.787764,-122.401087
79,DanceJam,San Francisco,USA,37.781557,-122.407959,Starbucks,37.7841086,-122.4076337
80,Yola,San Francisco,USA,37.7911148,-122.3954751,Starbucks Reserve,37.791511,-122.395103
81,Filtrbox,Palo Alto,USA,40.010492,-105.276843,Starbucks,40.010728,-105.276648
82,BitTorrent,San Francisco,USA,37.790998,-122.394668,Starbucks Reserve,37.791511,-122.395103
83,Doostang,Palo Alto,USA,37.427235,-122.145783,Starbucks,37.426867,-122.144091
84,Mevio,San Francisco,USA,37.782263,-122.392142,,,
85,Vlingo,Cambridge,USA,42.372912,-71.118999,Starbucks Reserve,42.373333,-71.119214
86,Docstoc,Santa Monica,USA,34.018275,-118.495025,Starbucks,34.0157416,-118.4965857
87,Shock Treatment Management,Seattle,USA,47.610332,-122.339859,Starbucks,47.6090095,-122.3399417
88,DotBlu,San Francisco,USA,37.09024,-95.712891,United States,37.09024,-95.712891
89,sezmi,Belmont,USA,37.524422,-122.265869,,,
90,sezmi,Santa Monica,USA,34.017373,-118.453218,Starbucks,34.019731,-118.454721
91,sezmi,Fort Lauderdale,USA,26.207024,-80.157296,,,
92,SpiralFrog,New York,USA,37.09024,-95.712891,United States,37.09024,-95.712891
93,MocoSpace,Boston,USA,42.350274,-71.058768,Starbucks,42.35223999999999,-71.05597
94,Minglebox,Bangalore,IND,12.971606,77.594376,,,
95,SnapTell,Palo Alto,USA,37.433414,-122.128772,,,
96,Thumbplay,New York,USA,40.725435,-73.997395,Starbucks,40.727212,-73.995485
97,Wonga,London,GBR,51.5192042,-0.1626103,Starbucks,51.5223174,-0.1635591
98,Spiceworks,Austin,USA,30.386601,-97.753739,,,
99,SayNow,Palo Alto,USA,37.42746,-122.143915,Starbucks,37.426867,-122.144091
100,Crunchyroll,San Francisco,USA,37.781265,-122.393229,Starbucks,37.77867,-122.396701
101,OMGPOP,New York,USA,40.723384,-74.001704,Starbucks,40.722553,-73.997942
102,Behance,New York,USA,40.74406,-74.004592,Starbucks,40.741128,-74.0013013
103,hulu,Los Angeles,USA,34.031276,-118.456806,,,
104,Attributor,San Mateo,USA,37.453687,-122.228595,,,
105,Mixx,McLean,USA,38.003376,-79.420926,,,
106,GENWI,Los Altos,USA,33.8171,-111.9035,,,
107,FlowPlay,Seattle,USA,47.6015315,-122.335943,Starbucks,47.601606,-122.333974
108,Viewpoints,Chicago,USA,41.890376,-87.63406,Starbucks,41.888639,-87.63452
109,RatePoint,Needham,USA,42.296111,-71.238524,Starbucks,42.29325100000001,-71.235089
110,mig33,Singapore,SGP,37.580304,-122.343679,Starbucks,37.579393,-122.346144
111,GamerDNA,Cambridge,USA,42.375392,-71.118487,Starbucks Reserve,42.373333,-71.119214
112,SpeedDate,San Mateo,USA,37.557637,-122.285714,Starbucks,37.5590258,-122.2830814
113,Animoto,New York,USA,40.72948,-74.000195,Starbucks,40.730715,-74.002585
114,mEgo,Los Angeles,USA,34.064491,-118.42749,,,
115,Metaplace,Solana Beach,USA,33.020832,-117.077311,Starbucks,33.017974,-117.07371
116,BroadClip,Livermore,USA,37.661237,-121.803572,,,
117,Fixya,San Mateo,USA,37.566879,-122.323895,,,
118,BuzzDash,Marina del Rey,USA,33.977854,-118.445271,,,
119,Xobni,San Francisco,USA,37.789634,-122.404052,Starbucks,37.7884614,-122.4034092
120,Worklight,New York,USA,40.756799,-73.976348,Starbucks,40.757077,-73.97596899999999
121,MatchMine,Needham,USA,42.304545,-71.220187,,,
122,Mobivox,Montreal,CAN,45.500277,-73.560084,Starbucks,45.5007393,-73.55924
123,3Jam,San Francisco,USA,37.765125,-122.4044034,Starbucks,37.7658845,-122.4034908
124,PlaySpan,Santa Clara,USA,37.396312,-121.961396,,,
125,Wikinvest,San Francisco,USA,37.775196,-122.419204,Starbucks,37.7770595,-122.417347
126,FriendFeed,Mountain View,USA,37.39248,-122.072612,,,
127,Whiskey Media,San Francisco,USA,37.856331,-122.495222,,,
128,Fon,Madrid,ESP,40.530724,-3.632687,,,
129,RayV,New York,USA,40.781159,-73.978332,Starbucks,40.781017,-73.98101799999999
130,Uptake,Palo Alto,USA,37.443058,-122.161674,,,
131,Polyvore,Mountain View,USA,37.386175,-122.083487,Starbucks,37.387571,-122.083068
132,Treemo Labs,Seattle,USA,47.620716,-122.347533,Starbucks,47.62103949999999,-122.3507743
133,Veodia,San Mateo,USA,37.553743,-122.300246,,,
134,Tumblr,New York,USA,40.743808,-73.983626,Starbucks,40.744169,-73.983712
135,uTest,Framingham,USA,42.288291,-71.52679,,,
136,Songkick,London,GBR,51.54202,-0.0558343,,,
137,Automattic,San Francisco,USA,37.744274,-122.421344,,,
138,EchoSign,Palo Alto,USA,37.445326,-122.160671,Starbucks,37.446791,-122.160561
139,Buzzwire,Denver,USA,39.755092,-104.988123,,,
140,Eurekster,,USA,37.790992,-122.40188,Starbucks,37.790184,-122.402101
141,Zattoo,Ann Arbor,USA,42.292649,-83.734673,,,
142,Baynote,San Jose,USA,37.332271,-122.006539,,,
143,Songbird,San Francisco,USA,37.787126,-122.39783,Starbucks,37.784833,-122.39996
144,Disqus,San Francisco,USA,37.786906,-122.397672,Starbucks,37.784833,-122.39996
145,Pelago,Seattle,USA,47.607065,-122.335373,Starbucks,47.607304,-122.334259
146,Faves,Seattle,USA,47.603327,-122.334983,Starbucks,47.60378799999999,-122.335678
147,Plazes,Berlin,DEU,52.523402,13.398694,Starbucks,52.52329,13.40217
148,Yedda,Tel Aviv,ISR,32.0554,34.7595,,,
149,Vringo,New York,USA,40.7550005,-73.9717364,Starbucks,40.75416999999999,-73.971732
150,Minekey,Sunnyvale,USA,37.384239,-122.012475,,,
151,RepairPal,Emeryville,USA,37.838225,-122.296411,Starbucks,37.8366108,-122.2951415
152,StreetFire,Los Angeles,USA,33.982431,-118.426707,,,
153,Zmags,Copenhagen,DNK,55.6839208,12.571492,Starbucks,55.6837993,12.5707606
154,Zmags,London,GBR,51.5111369,-0.1247662,Starbucks Coffee,51.5123341,-0.1216241
155,TrackVia,Denver,USA,39.738499,-105.158645,,,
156,Loopt,Mountain View,USA,37.384717,-122.081625,Starbucks,37.387571,-122.083068
157,Vobile,Santa Clara,USA,37.399208,-121.97895,,,
158,RealSelf,Seattle,USA,47.620716,-122.347533,Starbucks,47.62103949999999,-122.3507743
159,GeoSentric,Amsterdam,NLD,37.09024,-95.712891,United States,37.09024,-95.712891
160,GameLayers,San Francisco,USA,37.803847,-122.402468,Starbucks,37.802887,-122.402977
161,OurStage,Chelmsford,USA,42.591704,-71.319348,,,
162,Zoji,Seattle,USA,47.620716,-122.347533,Starbucks,47.62103949999999,-122.3507743
163,Mogreet,Venice,USA,33.999004,-118.472297,,,
164,WEbook,New York,USA,38.984172,-77.095965,Starbucks,38.9843169,-77.0945739
165,xkoto,Waltham,USA,42.405685,-71.255857,,,
166,Youku,Shanghai,CHN,31.2006566,121.4384701,Starbucks,31.19772,121.4369511
167,Songza,Long Island City,USA,40.7473113,-73.9549182,,,
168,betNOW,London,GBR,51.511599,-0.126389,Starbucks Coffee,51.5123341,-0.1216241
169,Motionbox,New York,USA,40.606061,-73.822331,,,
170,Jott,Seattle,USA,47.6139472,-122.327807,Starbucks Reserve Roastery,47.614039,-122.328079
171,divorce360,North Palm Beach,USA,26.820375,-80.058401,,,
172,Deezer,Paris,FRA,48.8780596,2.3283853,Starbucks,48.87645999999999,2.326762
173,Utterz,Maynard,USA,42.431555,-71.483077,,,
174,CrossLoop,Monterey,USA,36.611645,-121.898539,,,
175,TradeKing,Fort Lauderdale,USA,26.119102,-80.1343038,Starbucks,26.122237,-80.137046
176,HubSpot,Cambridge,USA,42.375392,-71.118487,Starbucks Reserve,42.373333,-71.119214
177,BeliefNet,New York,USA,40.740231,-73.985433,Starbucks,40.74054,-73.98422099999999
178,Goodreads,Santa Monica,USA,34.01052,-118.495981,,,
179,Kosmix,Mountain View,USA,37.3867729,-122.0752224,,,
180,HubPages,San Francisco,USA,37.7876952,-122.3991505,Starbucks,37.788673,-122.400874
181,Ribbit,Mountain View,USA,37.386665,-122.084171,Starbucks,37.387571,-122.083068
182,WeShow,New York,USA,40.752516,-73.973072,Starbucks,40.751558,-73.97361699999999
183,Streamezzo,Paris,FRA,48.872159,2.291225,,,
184,Flixwagon,Tel-Aviv,ISR,32.0554,34.7595,,,
185,Shoeboxed,Durham,USA,35.996157,-78.902115,,,
186,Shoeboxed,Durham,USA,35.9939,-78.8986,,,
187,RipCode,Richardson,USA,32.959908,-96.70737,,,
188,RipCode,Austin,USA,30.402252,-97.748795,Starbucks,30.401952,-97.746882
189,Chumby,San Diego,USA,32.939673,-117.240799,,,
190,PlayFirst,San Francisco,USA,37.790346,-122.40185,Starbucks,37.7896675,-122.4019931
191,Qik,Redwood City,USA,37.486368,-122.230116,Starbucks Reserve,37.486332,-122.229944
192,Delve Networks,Seattle,USA,47.600818,-122.334117,Starbucks,47.601606,-122.333974
193,Bunchball,Redwood City,USA,37.3208403,-121.9479223,Starbucks,37.320964,-121.949113
194,TravelMuse,New York,USA,37.402802,-122.117418,,,
195,Scrapblog,San Francisco,USA,25.752358,-80.25468,,,
196,SugarCRM,Cupertino,USA,37.323739,-122.014147,Starbucks,37.323404,-122.011309
197,4Home,Sunnyvale,USA,37.385225,-121.991912,,,
198,Jobfox,McLean,USA,38.92719,-77.216969,,,
199,Outspark,San Francisco,USA,37.775196,-122.419204,Starbucks,37.7770595,-122.417347
200,yoonew,New York,USA,40.75362,-73.986557,Starbucks,40.754361,-73.987257
201,Mumboe,Austin,USA,30.390071,-97.711652,,,
202,blinkbox music,Oxford,GBR,51.7319786,-1.2063327,,,
203,Roost,San Francisco,USA,37.7891288,-122.4020276,Starbucks,37.7884614,-122.4034092
204,Zynga,San Francisco,USA,37.765158,-122.404234,Starbucks,37.7658845,-122.4034908
205,clipsync,San Francisco,USA,37.2906027,-121.9317853,Starbucks,37.292828,-121.930574
206,Lookery,San Francisco,USA,37.788266,-122.403865,Starbucks,37.7884614,-122.4034092
207,Lookery,Cambridge,USA,42.398424,-71.130297,,,
208,Sharetivity,Palo Alto,USA,37.550954,-122.315396,Starbucks,37.552243,-122.31386
209,First30Days,Louisville,USA,38.257035,-85.717393,,,
210,VisualCV,Reston,USA,38.9530391,-77.3479238,Starbucks,38.95201,-77.347456
211,TalentSpring,Seattle,USA,47.680496,-122.120938,,,
212,RocketOn,South San Francisco,USA,37.65466,-122.40788,Starbucks,37.655213,-122.410901
213,Mixbook,Palo Alto,USA,37.383844,-121.918319,,,
214,stickK,New York,USA,40.744837,-73.983843,Starbucks,40.744169,-73.983712
215,Bragster,London,GBR,51.5220072,-0.0766034,,,
216,Snap Technologies,Pasadena,USA,34.146436,-118.153136,Starbucks,34.145914,-118.152542
217,Qype,Hamburg,DEU,53.54598,9.987181,Starbucks,53.5486926,9.987982599999999
218,Smalltown,San Mateo,USA,37.566123,-122.323045,,,
219,Sparkplay Media,Mill Valley,USA,37.905544,-122.547445,,,
220,Cellfire,San Jose,USA,37.395923,-121.92902,,,
221,MOG,Berkeley,USA,37.872222,-122.268403,Starbucks,37.870434,-122.266083
222,Social Gaming Network,Los Angeles,USA,37.446823,-122.161523,Starbucks,37.446791,-122.160561
223,Social Gaming Network,Beverly Hills,USA,34.0698494,-118.4054182,Starbucks,34.0705899,-118.4023581
224,Foneshow,Portland,USA,43.657058,-70.253959,Starbucks,43.657582,-70.254661
225,doubleTwist,San Francisco,USA,37.775196,-122.419204,Starbucks,37.7770595,-122.417347
226,JackPot Rewards,Newton,USA,42.337037,-71.251748,,,
227,RiffTrax,San Diego,USA,32.936973,-117.240431,,,
228,P2P-Next,,NLD,52.132633,5.291266,,,
229,Grooveshark,Gainesville,USA,29.6502461,-82.3230981,Starbucks,29.649743,-82.32368699999999
230,FameCast,Austin,USA,30.268735,-97.745209,Starbucks,30.268259,-97.74295599999999
231,Redux,Berkeley,USA,37.87168,-122.269494,Starbucks,37.870434,-122.266083
232,Evernote,Redwood City,USA,37.386774,-121.987661,,,
233,Raptr,Mountain View,USA,37.40384,-122.07808,Starbucks,37.403017,-122.079089
234,HipLogic,Fremont,USA,37.5541073,-121.9756765,Starbucks,37.553362,-121.973852
235,Inform Technologies,New York,USA,40.744639,-73.983963,Starbucks,40.744169,-73.983712
236,SendMe,San Francisco,USA,37.787126,-122.39783,Starbucks,37.784833,-122.39996
237,Blog Talk Radio,New York,USA,40.757929,-73.985506,Starbucks,40.75766,-73.98508
238,Tiny Pictures,San Francisco,USA,37.781002,-122.406912,Starbucks,37.7841086,-122.4076337
239,Issuu,Palo Alto,USA,37.4784804,-122.1514101,Starbucks,37.480185,-122.151151
240,Howcast,New York City,USA,40.646166,-73.889492,,,
241,BillShrink,Redwood City,USA,37.503147,-122.211435,,,
242,SugarSync,San Mateo,USA,37.54763,-122.307887,,,
243,Outbrain,New York City,USA,40.757929,-73.985506,Starbucks,40.75766,-73.98508
244,MoFuse,Providence,USA,41.826956,-71.408718,Starbucks,41.8252513,-71.4098695
245,OLX,New York,USA,40.8587524,-73.7258199,,,
246,Phreesia,New York,USA,40.739794,-73.985878,Starbucks,40.740194,-73.986767
247,Innofidei,Beijing,CHN,39.905556,116.395833,,,
248,99designs,San Francisco,USA,37.7955307,-122.4005983,Starbucks,37.79510399999999,-122.400508
249,99designs,Collingwood,AUS,-37.8026587,144.9868546,,,
250,99designs,Berlin,DEU,52.4986199,13.4469031,,,
251,Generate,Santa Monica,USA,34.031328,-118.471463,,,
252,Generate,New York,USA,40.7570972,-73.969821,Starbucks,40.75743,-73.969128
253,Ifbyphone,Chicago,USA,42.040851,-87.750643,Starbucks,42.040516,-87.751859
254,Kareo,Irvine,USA,33.676444,-117.8587,Starbucks,33.6785656,-117.8624091
255,Footnote,Lindon,USA,40.3310529,-111.7276347,,,
256,Akoha,Montreal,CAN,45.516545,-73.578477,,,
257,Tripology,New York,USA,40.746883,-73.983969,Starbucks,40.74850250000001,-73.9851667
258,Giant Realm,New York,USA,40.7566658,-73.9827553,Starbucks,40.75559,-73.984106
259,Global Roaming,Miami,USA,25.9690885,-80.1417742,Starbucks,25.9668838,-80.1422518
260,Janrain,Portland,USA,45.484413,-122.675838,,,
261,TalkShoe,Wexford,USA,40.616311,-80.059548,,,
262,DailyStrength,Los Angeles,USA,34.043948,-118.468204,Starbucks,34.045001,-118.467267
263,Clarizen,San Mateo,USA,37.536044,-122.328401,Starbucks,37.534018,-122.326154
264,Skydeck,Palo Alto,USA,37.5645375,-122.3254705,Starbucks,37.562897,-122.323927
265,Next New Networks,New York,USA,40.743808,-73.983626,Starbucks,40.744169,-73.983712
266,Zuora,Foster City,USA,37.5596277,-122.2709868,Starbucks,37.56095,-122.273902
267,Elastra,San Francisco,USA,37.791137,-122.391843,Starbucks,37.791311,-122.392268
268,Krillion,Mountain View,USA,37.391727,-122.077597,,,
269,Star Analytics,San Mateo,USA,37.556152,-122.281484,Starbucks,37.5590258,-122.2830814
270,Replay Solutions,Redwood City,USA,37.512318,-122.200914,,,
271,Playfish,London,GBR,51.4991094,-0.1984802,,,
272,Playfish,TromsÃ¸,NOR,69.636216,18.931062,,,
273,Tapioca Mobile,San Diego,USA,32.88945,-117.166929,,,
274,Slicethepie,,GBR,55.378051,-3.435973,,,
275,ShowClix,Pittsburgh,USA,40.517948,-79.842487,,,
276,ScanCafe,Burlingame,USA,37.592584,-122.369676,,,
277,Moblica,Tel Aviv,ISR,32.0554,34.7595,,,
278,KidZui,San Diego,USA,37.09024,-95.712891,United States,37.09024,-95.712891
279,Dimdim,Lowell,USA,42.6161515,-71.3258687,,,
280,Mytopia,Palo Alto,USA,34.007967,-118.489681,Starbucks,34.010735,-118.4915543
281,Netbooks,San Francisco,USA,37.79471,-122.40195,Starbucks,37.794632,-122.402728
282,Pikum,London,GBR,51.539778,-0.152998,,,
283,7digital,London,GBR,51.5254,-0.083726,Starbucks Coffee,51.5262525,-0.08800519999999999
284,Kannuu,Dallas,USA,32.9249424,-96.7679229,Starbucks,32.92510499999999,-96.769965
285,Clearwell Systems,Mountain View,USA,37.398022,-122.049143,,,
286,The Echo Nest,Somerville,USA,42.396495,-71.12045,Starbucks,42.3956589,-71.1222928
287,Business Insider,New York,USA,40.73906,-73.990911,Starbucks,40.740442,-73.99122799999999
288,Perfect Market,Pasadena,USA,34.146436,-118.153136,Starbucks,34.145914,-118.152542
289,Zemanta,London,GBR,51.5141566,-0.0934254,Starbucks Coffee,51.5146144,-0.09615549999999999
290,Zemanta,New York,USA,40.7387945,-73.9939213,Starbucks,40.737046,-73.996526
291,Zemanta,Ljubljana,SVN,46.0607926,14.4972218,,,
292,Glassdoor,Sausalito,USA,37.868002,-122.500111,,,
293,Marketo,San Mateo,USA,37.5583,-122.301385,,,
294,eYeka,Paris,FRA,48.856667,2.350987,Starbucks,48.8568201,2.3548934
295,Cellufun,New York,USA,40.73993,-73.9930489,Starbucks,40.740442,-73.99122799999999
296,Xoopit,San Francisco,USA,37.7617955,-122.4092704,Starbucks,37.7629128,-122.4104227
297,eRepublik,Madrid,ESP,40.43094,-3.6952896,,,
298,Q-Layer,Lochristi,BEL,51.070829,3.771122,,,
299,Metaversum,Berlin,DEU,52.512249,13.419841,,,
300,Placecast,San Francisco,USA,37.773688,-122.423468,,,
301,Jodange,Yonkers,USA,40.934803,-73.901839,,,
302,Austhink Software,"Melbourne, Victoria",AUS,-37.813603,144.96616,Starbucks,-37.8135097,144.9663717
303,Cotendo,Sunnyvale,USA,37.504764,-122.259568,Starbucks,37.506495,-122.260987
304,Cellfish,New York,USA,40.761855,-73.983754,Starbucks,40.762426,-73.98362999999999
305,SiBEAM,Sunnyvale,USA,37.390704,-122.03039,Starbucks,37.3882714,-122.0303535
306,Boxbe,San Francisco,USA,37.800209,-122.442592,,,
307,Univa UD,Lisle,USA,41.808458,-88.073008,,,
308,Moviestorm,Cambridge,GBR,52.197471,0.130588,,,
309,mySupermarket,New York,USA,53.478714,-2.244824,Starbucks,53.47794649999999,-2.2456007
310,mySupermarket,London,GBR,51.513671,-0.159205,Starbucks,51.5141728,-0.1612318
311,Mojiva,New York,USA,40.7185614,-73.998662,Starbucks,40.718252,-73.999961
312,GitHub,San Francisco,USA,37.775196,-122.419204,Starbucks,37.7770595,-122.417347
313,Iminent,Paris,FRA,48.8522431,2.387422,,,
314,PluggedIn,Santa Monica,USA,34.007967,-118.489681,Starbucks,34.010735,-118.4915543
315,Mirror42,Amsterdam,NLD,52.36702,4.896468,STARBUCKS The Bank Rembrandtplein,52.3659541,4.8977405
316,Apture,San Francisco,USA,37.566042,-122.322954,Starbucks,37.562897,-122.323927
317,MediaScrape,Montreal,CAN,45.545447,-73.639076,Starbucks,45.5431848,-73.63995249999999
318,InMobi,San Francisco,USA,37.4465496,-122.1709208,Starbucks,37.443643,-122.171738
319,InMobi,Singapore,SGP,1.284082,103.851942,Starbucks,1.2842759,103.8520723
320,TeachStreet,Seattle,USA,47.6171788,-122.3370801,Starbucks,47.615675,-122.336894
321,MUBI,Palo Alto,USA,37.44236,-122.161025,,,
322,Health Plan One,Shelton,USA,41.262403,-73.135894,,,
323,Modern Feed,Los Angeles,USA,34.085749,-118.343791,,,
324,PrepChamps,,USA,35.914702,-78.902617,,,
325,Aardvark,San Francisco,USA,37.748676,-122.415813,,,
326,Serious Business,San Francisco,USA,37.7893215,-122.4013624,Starbucks,37.788673,-122.400874
327,TuneWiki,Santa Monica,USA,37.412577,-121.916861,,,
328,KnowledgeTree,Raleigh,USA,35.786975,-78.647003,Starbucks,35.788415,-78.64783299999999
329,Spotify,Luxembourg,LUX,49.607295,6.121511,,,
330,Center'd,Menlo Park,USA,37.452992,-122.185098,Starbucks,37.452214,-122.183867
331,Kabam,San Francisco,USA,37.3944561,-122.0785314,,,
332,Pixsta,London,GBR,51.51819,-0.208979,Starbucks,51.5168329,-0.2058693
333,New Relic,San Francisco,USA,37.269175,-119.306607,,,
334,Velocify,El Segundo,USA,33.9192583,-118.3952969,,,
335,Tripwolf,Vienna,AUT,48.220357,16.355,,,
336,Zinch,San Francisco,USA,40.234451,-111.658656,,,
337,GodTube,Plano,USA,33.075067,-96.823962,Starbucks,33.074283,-96.82221000000001
338,Yoono,San Francisco,USA,37.787204,-122.397884,Starbucks,37.789545,-122.397592
339,Jinni,Tel Aviv,ISR,32.0554,34.7595,,,
340,OVGuide,Los Angeles,USA,34.052187,-118.243425,Starbucks,34.050984,-118.242338
341,EatLime,San Francisco,USA,37.7749295,-122.4194155,Starbucks,37.7770595,-122.417347
342,sevenload,Cologne,DEU,50.945289,6.921546,,,
343,Tyfone,Portland,USA,45.5105,-122.674995,Starbucks,45.513219,-122.675386
344,TuneUp,San Francisco,USA,37.7654195,-122.4119381,Starbucks,37.7629128,-122.4104227
345,Mozes,Palo Alto,USA,37.445667,-122.166911,,,
346,Stitcher,San Francisco,USA,37.775196,-122.419204,Starbucks,37.7770595,-122.417347
347,TerraPass,San Francisco,USA,37.787445,-122.397847,Starbucks,37.789545,-122.397592
348,Sometrics,El Segundo,USA,34.048857,-118.251343,Starbucks,34.048976,-118.251847
349,mywaves,Sunnyvale,SAU,37.3886,-122.016779,,,
350,Aprius,Washington,USA,47.6409655,-117.5357108,,,
351,Transpera,San Francisco,USA,37.785792,-122.405081,Starbucks,37.786139,-122.405723
352,Fliqz,Emeryville,USA,37.848641,-122.289498,Starbucks,37.846608,-122.291652
353,Moblyng,Redwood City,USA,37.453665,-122.229069,,,
354,Votigo,Boulder,USA,37.8919079,-122.1192743,Starbucks,37.891698,-122.120063
355,PurePlay,San Francisco,USA,37.775196,-122.419204,Starbucks,37.7770595,-122.417347
356,GreenNote,Mather,USA,37.492685,-122.227765,Starbucks,37.490422,-122.225101
357,M:Metrics,Seattle,USA,47.620716,-122.347533,Starbucks,47.62103949999999,-122.3507743
358,B-hive Networks,San Mateo,USA,37.536402,-122.325129,Starbucks,37.534018,-122.326154
359,Cloudcity,St Albans,GBR,51.750141,-0.280535,,,
360,TeleFlip,Santa Monica,USA,34.01695,-118.451933,Starbucks,34.019731,-118.454721
361,Ozmo Devices,Palo Alto,USA,37.446152,-122.117722,,,
362,Backblaze,Palo Alto,USA,37.44296,-122.151198,,,
363,Inertia Beverage Group,Napa,USA,38.223032,-122.261642,,,
364,TuneCore,Brooklyn,USA,40.704382,-73.986572,,,
365,Gamook,Menlo Park,USA,37.41924,-122.208414,,,
366,Cooliris,Palo Alto,USA,37.421447,-122.141604,,,
367,Crowd Science,San Jose,USA,37.419041,-122.087471,,,
368,Crowd Science,Toronto,CAN,43.712309,-79.399538,Starbucks,43.711013,-79.3990309
369,WSO2,Palo Alto,USA,37.390918,-122.080843,Peet's Coffee,37.3909601,-122.0811103
370,WSO2,,GBR,50.8472228,-0.919424,,,
371,BumpTop,Toronto,CAN,43.648786,-79.3777473,Starbucks,43.64928219999999,-79.3782595
372,Limbo,Burlingame,USA,37.580304,-122.343679,Starbucks,37.579393,-122.346144
373,BrandYourself,New York,USA,42.275263,-71.24762,,,
374,CohesiveFT,Chicago,USA,41.882401,-87.637816,Starbucks,41.88089100000001,-87.638897
375,StartForce,San Francisco,USA,37.796164,-122.420903,Starbucks,37.796758,-122.422096
376,Pivot,Cambridge,USA,42.364367,-71.078978,Starbucks,42.367459,-71.076111
377,SquareClock,Asnieres sur seine,FRA,48.9064804,2.2860418,,,
378,Tapulous,Palo Alto,USA,37.444332,-122.161018,Starbucks,37.446791,-122.160561
379,be2,Munich,DEU,51.578714,8.093765,,,
380,Nimbit,Framingham,USA,42.272486,-71.424992,,,
381,Codefast,San Jose,USA,37.316466,-121.873881,Starbucks,37.315392,-121.872396
382,HireVue,South Jordan,USA,40.554467,-111.9137871,,,
383,HealthiNation,New York,USA,40.739341,-73.988357,Starbucks,40.740194,-73.986767
384,Hyperic,Palo Alto,USA,37.4027811,-122.1441615,,,
385,Zenoss,Annapolis,USA,38.97639,-76.503171,,,
386,Zenoss,Austin,USA,30.379593,-97.765313,,,
387,CrimeReports,Salt Lake City,USA,40.726342,-111.858835,,,
388,Stardoll,Stockholm,SWE,59.345553,18.037611,,,
389,Vivaty,Menlo Park,USA,37.48032,-122.178371,,,
390,Boxee,Tel Aviv,ISR,32.0554,34.7595,,,
391,Boxee,New York,USA,40.745064,-73.992637,Starbucks,40.74525,-73.99086799999999
392,Bambuser,Stockholm,SWE,59.332788,18.064488,Starbucks,59.3322352,18.0686288
393,Trusera,Seattle,USA,47.617122,-122.305994,Starbucks,47.618084,-122.3038941
394,Jibe Mobile,Mountain View,USA,37.4186097,-122.0937686,,,
395,SpikeSource,Mountain View,USA,37.510805,-122.203744,,,
396,CrestaTech,Santa Clara,USA,37.383368,-121.980186,,,
397,Keibi Technologies,San Francisco,USA,37.787646,-122.402759,Starbucks,37.7884614,-122.4034092
398,BountyJobs,New York,USA,40.754211,-73.97917,Starbucks,40.753901,-73.97869299999999
399,VBS TV,Brooklyn,USA,40.720764,-73.957968,Starbucks Reserve,40.718005,-73.958219
400,Imagekind,Raleigh,USA,47.617732,-122.357317,,,
401,Aloqa,Munich,DEU,48.1281209,11.5677288,,,
402,Aloqa,Palo Alto,USA,37.43938,-122.158804,,,
403,FlyCast,Lancaster,USA,40.039353,-76.307448,Starbucks,40.03996739999999,-76.305441
404,My Damn Channel,New York,USA,40.754762,-73.988543,Starbucks,40.754361,-73.987257
405,My Damn Channel,El Segundo,USA,33.9019543,-118.3872018,Starbucks,33.902255,-118.383561
406,Mezmeriz,Ithaca,USA,42.485193,-76.458553,,,
407,Fortisphere,Chantilly,USA,38.87804,-77.436151,,,
408,Aylus Networks,Westford,USA,42.559391,-71.432373,,,
409,Posterous,San Francisco,USA,37.775196,-122.419204,Starbucks,37.7770595,-122.417347
410,Open Places,San Francisco,USA,37.758352,-122.398379,,,
411,Genbook,San Francisco,USA,37.789902,-122.4007791,Starbucks,37.7896675,-122.4019931
412,TweetDeck,London,GBR,51.5001524,-0.1262362,,,
413,Flowgram,San Francisco,USA,37.7710177,-122.4025976,Starbucks,37.770242,-122.403458
414,Neato Robotics,Newark,USA,37.414232,-122.0875443,,,
415,Wahanda,London,GBR,41.792265,1.996567,,,
416,Bitly,New York,USA,40.74034,-74.00721,Starbucks Reserve New York Roastery,40.7405581,-74.0059674
417,Flat World Knowledge,Irvington,USA,41.091306,-73.923422,,,
418,Involver,San Francisco,USA,37.788653,-122.401333,Starbucks,37.788673,-122.400874
419,Riot Games,Culver City,USA,34.0025911,-118.3942383,,,
420,Blue Lava Technologies,Honolulu,USA,21.309419,-157.86318,Starbucks,21.3081809,-157.8622324
421,Streetline,San Francisco,USA,37.782085,-122.409747,Starbucks,37.7841086,-122.4076337
422,neoSaej,Burlington,USA,42.485691,-71.19862,,,
423,Zendesk,San Francisco,USA,55.676294,12.568116,Starbucks,55.6767348,12.5689913
424,muzu tv,Dublin,IRL,53.341987,-6.262682,Starbucks,53.3417906,-6.263546499999999
425,muzu tv,London,GBR,51.513678,-0.13063,Starbucks Coffee,51.5127331,-0.1333425
426,muzu tv,New York,USA,40.757716,-73.972321,Starbucks,40.756836,-73.97283
427,LiquidTalk,Chicago,USA,41.831001,-87.626918,Starbucks,41.830872,-87.62674799999999
428,BlogHer,Belmont,USA,37.491356,-122.228843,Starbucks,37.490422,-122.225101
429,Cherwell Software,Colorado Springs,USA,39.010667,-104.81628,,,
430,Lexy,San Francisco,USA,37.786906,-122.397672,Starbucks,37.784833,-122.39996
431,Eye-Fi,Mountain View,USA,37.392428,-122.072479,,,
432,CarbonFlow,San Francsico,USA,37.779097,-122.39365,Starbucks,37.777035,-122.393641
433,CarbonFlow,Sydney,AUS,-33.867139,151.207114,Starbucks,-33.8652185,151.2054493
434,CarbonFlow,London,GBR,51.500152,-0.126236,,,
435,Huddler,San Francisco,USA,37.7893215,-122.4013624,Starbucks,37.788673,-122.400874
436,Prezi,Budapest,HUN,47.490346,19.059078,Starbucks Egyetem tér,47.490961,19.059113
437,Anvato,Mountain View,USA,37.400689,-122.0572,,,
438,Zorap,San Francisco,USA,37.775196,-122.419204,Starbucks,37.7770595,-122.417347
439,Zorap,Falmouth,USA,43.6910137,-70.2694636,,,
440,Hunch,New York,USA,40.741179,-73.993182,Starbucks,40.741873,-73.993326
441,Local Marketers,Seattle,USA,47.5989681,-122.3329036,Starbucks,47.59907,-122.3326739
442,ngmoco,San Francisco,USA,37.7705096,-122.4015807,Starbucks,37.770242,-122.403458
443,LeisureLogix,Tampa,USA,28.032975,-82.64611,Starbucks,28.0328913,-82.64787319999999
444,SkyGrid,Sunnyvale,USA,37.40754,-122.010958,,,
445,dynaTrace software,Waltham,USA,42.391389,-71.270987,,,
446,dynaTrace software,Linz,AUT,48.3295209,14.3194706,,,
447,SpiderOak,Northbrook,USA,42.142261,-87.862305,,,
448,MyFrontSteps,Saskatoon,CAN,52.143886,-106.6634565,,,
449,Cazoodle,Champaign,USA,40.090814,-88.239866,,,
450,Hyper9,Austin,USA,30.387353,-97.753163,,,
451,Koolanoo Group,Beijing,CHN,39.905556,116.395833,,,
452,InstallFree,Stamford,USA,41.073034,-73.550452,,,
453,Likewise Software,Bellevue,USA,47.582658,-122.135282,Starbucks,47.581863,-122.1348989
454,Integrate,Scottsdale,USA,40.7481039,-74.0353787,,,
455,ZManda,Sunnyvale,USA,37.3725243,-122.035963,Starbucks,37.37422,-122.032769
456,ELDR Media,Corte Madera,USA,37.9260091,-122.5162892,Starbucks,37.927706,-122.517131
457,Synchronica,Berlin,DEU,52.494722,13.398514,,,
458,Synchronica,Raleigh,USA,35.868807,-78.615986,,,
459,Synchronica,Campbell,USA,37.275604,-121.952034,,,
460,Envysion,Louisville,USA,39.97764,-105.13114,,,
461,BitWave,Lowell,USA,42.616152,-71.325869,,,
462,Occipital,Boulder,USA,40.018145,-105.278109,Starbucks,40.018733,-105.276647
463,Atigeo,Bellevue,USA,47.6174533,-122.2016685,Starbucks,47.6170443,-122.2021678
464,UBmatrix,Redwood City,USA,37.522281,-122.258139,,,
465,Lyft,San Francisco,USA,37.7899027,-122.4007846,Starbucks,37.7896675,-122.4019931
466,Jumptap,Boston,USA,42.368633,-71.075305,Starbucks,42.367459,-71.076111
467,Jumptap,New York City,USA,40.751478,-73.980305,Starbucks,40.7520837,-73.9811661
468,HammerKit,Helsinki,FIN,60.16441,24.910863,,,
469,StudioNow,Nashville,USA,36.13996,-86.796377,,,
470,GoodGuide,San Francisco,USA,37.7983181,-122.4000032,Starbucks,37.797718,-122.401083
471,Tweegee,Ramat Gan,ISR,32.037363,34.8003705,,,
472,Picateers,San Mateo,USA,37.5574,-122.301914,,,
473,Big Stage,South Pasadena,USA,34.111471,-118.174878,,,
474,Lolapps,San Francisco,USA,37.7870923,-122.3999719,Starbucks,37.787764,-122.401087
475,Connectbeam,Mountain View,USA,37.401818,-122.050565,,,
476,Geodelic Systems,Los Angeles,USA,34.005914,-118.488129,,,
477,Helpstream,Mountain View,USA,37.418262,-122.087859,,,
478,Hangout Industries,Boston,USA,42.352835,-71.0609612,Starbucks,42.3532457,-71.057698
479,Pixelpipe,San Francisco,USA,37.764395,-122.401024,Starbucks,37.7658845,-122.4034908
480,Cazoodle,Champaign,USA,40.090814,-88.239866,,,
481,Hyper9,Austin,USA,30.387353,-97.753163,,,
482,Koolanoo Group,Beijing,CHN,39.905556,116.395833,,,
483,InstallFree,Stamford,USA,41.073034,-73.550452,,,
484,Likewise Software,Bellevue,USA,47.582658,-122.135282,Starbucks,47.581863,-122.1348989
485,Integrate,Scottsdale,USA,40.7481039,-74.0353787,,,
486,ZManda,Sunnyvale,USA,37.3725243,-122.035963,Starbucks,37.37422,-122.032769
487,ELDR Media,Corte Madera,USA,37.9260091,-122.5162892,Starbucks,37.927706,-122.517131
488,Synchronica,Berlin,DEU,52.494722,13.398514,,,
489,Synchronica,Raleigh,USA,35.868807,-78.615986,,,
490,Synchronica,Campbell,USA,37.275604,-121.952034,,,
491,Envysion,Louisville,USA,39.97764,-105.13114,,,
492,BitWave,Lowell,USA,42.616152,-71.325869,,,
493,Occipital,Boulder,USA,40.018145,-105.278109,Starbucks,40.018733,-105.276647
494,Atigeo,Bellevue,USA,47.6174533,-122.2016685,Starbucks,47.6170443,-122.2021678
495,UBmatrix,Redwood City,USA,37.522281,-122.258139,,,
496,Lyft,San Francisco,USA,37.7899027,-122.4007846,Starbucks,37.7896675,-122.4019931
497,Jumptap,Boston,USA,42.368633,-71.075305,Starbucks,42.367459,-71.076111
498,Jumptap,New York City,USA,40.751478,-73.980305,Starbucks,40.7520837,-73.9811661
499,HammerKit,Helsinki,FIN,60.16441,24.910863,,,
500,StudioNow,Nashville,USA,36.13996,-86.796377,,,
501,GoodGuide,San Francisco,USA,37.7983181,-122.4000032,Starbucks,37.797718,-122.401083
502,Tweegee,Ramat Gan,ISR,32.037363,34.8003705,,,
503,Picateers,San Mateo,USA,37.5574,-122.301914,,,
504,Big Stage,South Pasadena,USA,34.111471,-118.174878,,,
505,Lolapps,San Francisco,USA,37.7870923,-122.3999719,Starbucks,37.787764,-122.401087
506,Geodelic Systems,Los Angeles,USA,34.005914,-118.488129,,,
507,Connectbeam,Mountain View,USA,37.401818,-122.050565,,,
508,Helpstream,Mountain View,USA,37.418262,-122.087859,,,
509,Hangout Industries,Boston,USA,42.352835,-71.0609612,Starbucks,42.3532457,-71.057698
510,Pixelpipe,San Francisco,USA,37.764395,-122.401024,Starbucks,37.7658845,-122.4034908
511,LiveHive Systems,Waterloo,CAN,43.474686,-80.521246,Starbucks,43.4763516,-80.5253082
512,Buzzd,New York,USA,40.733928,-73.991334,Starbucks,40.7350543,-73.98980399999999
513,Metranome,Waterloo,CAN,43.494754,-80.530888,,,
514,Cliqset,Jacksonville,USA,30.310978,-81.657707,,,
515,Gowalla,Austin,USA,30.2729209,-97.7443863,Starbucks,30.271906,-97.74116099999999
516,Ziva Software,Bangalore,IND,12.973784,77.64359,,,
517,Brightstorm,San Francisco,USA,37.804619,-122.371203,,,
518,Vertica Systems,Billerica,USA,42.543932,-71.278698,,,
519,CityVoter,Cambridge,USA,42.358184,-71.106389,,,
520,Heatwave Interactive,Austin,USA,30.297775,-97.762921,,,
521,PicApp,San Francisco,USA,37.79402,-122.4031242,Starbucks,37.792846,-122.404304
522,Groupon,Chicago,USA,41.8965162,-87.643622,Starbucks,41.896293,-87.641201
523,Finsphere,Bellevue,USA,47.614761,-122.198904,Starbucks,47.6142511,-122.1991481
524,Smule,San Francisco,USA,37.779624,-122.391236,Starbucks,37.777035,-122.393641
525,Radionomy,Brussels,BEL,50.831147,4.33511,,,
526,EyeSpot,Torrance,USA,33.84406,-118.322959,,,
527,FamilyLink,Provo,USA,40.250096,-111.643179,,,
528,One Season,San Francisco,USA,37.775196,-122.419204,Starbucks,37.7770595,-122.417347
529,Avaak,San Diego,USA,32.897274,-117.201076,,,
530,Reframe It,San Francisco,USA,37.782163,-122.400591,Starbucks,37.784833,-122.39996
531,Poptent,Conshohocken,USA,40.0018743,-75.2747196,Starbucks,40.002228,-75.274686
532,kooaba,Z&#252;rich,CHE,47.389909,8.516049,,,
533,Nexenta Systems,Santa Clara,USA,37.444098,-122.161287,Starbucks,37.446791,-122.160561
534,Britely,Palo Alto,USA,37.458766,-122.172519,,,
535,Sentrigo,Santa Clara,USA,37.55911,-122.303493,,,
536,Sentrigo,Woburn,USA,42.508719,-71.144313,,,
537,DubMeNow,Viena,USA,38.916336,-77.230488,,,
538,Siri,San Jose,USA,37.320052,-121.877636,,,
539,Vuclip,Milpitas,USA,37.406027,-121.918642,,,
540,Vuclip,New Delhi,IND,28.635308,77.22496,Amalgamated Bean Coffee Trading Co Ltd,28.632768,77.222728
541,Vuclip,Mumbai,IND,19.0759837,72.8776559,,,
542,Booyah,San Francisco,USA,37.420728,-122.2103414,,,
543,Formspring,San Francisco,USA,39.9052263,-86.0547016,Starbucks,39.905484,-86.051715
544,For Your Imagination,New York,USA,40.744594,-73.989698,Starbucks,40.743839,-73.988846
545,ReverbNation,Durham,USA,36.002893,-78.904075,,,
546,ReverbNation,New York,USA,40.718888,-74.001169,Starbucks,40.718252,-73.999961
547,SureSpeak,Chicago,USA,41.889183,-87.632519,Starbucks,41.89016000000001,-87.63125099999999
548,C4M,Marseille,FRA,43.30758,5.387345,,,
549,Pumant,Birmingham,GBR,52.482932,-1.893621,Starbucks,52.48035530000001,-1.8970158
550,Pumant,Buenos Aires,ARG,-34.611781,-58.417309,,,
551,Games2Win,"Tardeo,Mumbai",IND,18.9742904,72.8127265,,,
552,Ozone Media Solutions,Mumbai,IND,19.017656,72.856178,,,
553,Ozone Media Solutions,Bangalore,IND,12.971606,77.594376,,,
554,Awdio,Paris,FRA,48.887534,2.356288,,,
555,DocVerse,San Francisco,USA,37.788115,-122.397141,Starbucks,37.789545,-122.397592
556,Yipit,New York,USA,40.744618,-73.987764,Starbucks,40.7449904,-73.9868247
557,Open-Xchange,Tarrytown,USA,41.0662835,-73.8625452,,,
558,Open-Xchange,Olpe,DEU,51.029415,7.850863,Kaufland Olpe,51.0289112,7.850842900000001
559,Open-Xchange,Nuremberg,DEU,49.4605351,11.0823953,,,
560,GetBack,Los Angeles,USA,34.0342337,-118.4536137,,,
561,TRX Systems,Greenbelt,USA,38.9916581,-76.879257,Starbucks,38.992202,-76.87811599999999
562,DeepDyve,Sunnyvale,USA,37.377787,-122.029217,Starbucks,37.37645,-122.031566
563,Populis,Rome,ITA,41.8663418,12.4972454,,,
564,One True Media,Redwood City,USA,37.485824,-122.212095,,,
565,Trustpilot,Copenhagen V,DNK,55.6739617,12.5605372,Starbucks,55.6728822,12.5642771
566,PeerApp,Newton,USA,42.3127142,-71.2252014,,,
567,Clearleap,Duluth,USA,34.070164,-84.058708,,,
568,Kynetx,Lehi,USA,40.4273613,-111.8967224,,,
569,Rollstream,McLean,USA,38.872668,-77.367981,,,
570,Imagine Communications,San Diego,USA,32.9388917,-117.2398594,,,
571,Amadesa,Evanston,USA,42.055849,-87.694664,,,
572,Movirtu,London,GBR,51.5499708,-0.1815999,Starbucks,51.5477021,-0.1825006
573,Movirtu,Noida,IND,28.5821195,77.3266991,,,
574,AutoVirt,Nashua,USA,42.7370219,-71.4872976,,,
575,WiChorus,San Jose,USA,37.409096,-121.943191,Starbucks,37.406443,-121.941791
576,ZeroTurnaround,Tartu,USA,58.3820542,26.731054,,,
577,Momail,Stockholm,SWE,59.3359806,18.075506,Starbucks,59.3343654,18.0710073
578,Synthesio,New York,USA,40.7431836,-73.9935011,Starbucks,40.743592,-73.992076
579,Virtual Bridges,Austin,USA,30.27995,-97.807274,,,
580,People Capital,New York,USA,40.756054,-73.986951,Starbucks,40.7567274,-73.9858802
581,expressor software,Burlington,USA,42.485102,-71.211568,Starbucks,42.4863948,-71.2121944
582,mFoundry,Larkspur,USA,37.862592,-122.493561,Starbuck Canvas Works,37.8634803,-122.4919706
583,REMOTV,New Haven,USA,41.3215202,-72.9294232,,,
584,PrestaShop,Levallois-Perret,FRA,48.8687217,2.3593849,,,
585,Viigo,Toronto,CAN,43.6490004,-79.3723339,Starbucks,43.6487479,-79.37251189999999
586,Modelinia,New York,USA,40.739867,-73.990024,Starbucks,40.740442,-73.99122799999999
587,Broadchoice,San Mateo,USA,37.553743,-122.300246,,,
588,Allegiance,South Jordan,USA,40.554923,-111.9032625,,,
589,Coveroo,San Francisco,USA,37.770067,-122.407603,,,
590,RideCharge,Alexandria,USA,38.814329,-77.038605,,,
591,StockTwits,San Diego,USA,32.7161896,-117.168697,Starbucks,32.7159756,-117.1688525
592,Rudder,Houston,USA,29.739322,-95.444747,Starbucks,29.741458,-95.447541
593,Green Apple Media,Dublin,IRL,53.3438298,-6.2689465,,,
594,Proclivity Systems,New York,USA,40.738954,-73.992,Starbucks,40.740442,-73.99122799999999
595,mPay Gateway,Minneapolis,USA,44.98983,-93.2743,,,
596,Plusmo,Santa Clara,USA,37.400367,-121.985711,,,
597,mBeat Media,Reston,USA,38.94794,-77.347961,,,
598,mydeco,London,GBR,51.518101,-0.468617,,,
599,Conviva,San Mateo,USA,37.552806,-122.2916021,,,
600,IMedExchange,Seattle,USA,47.6136485,-122.3371174,Starbucks,47.61386599999999,-122.336973
601,BeliefNetworks,Charleston,USA,32.783932,-79.999591,,,
602,BeliefNetworks,New York,USA,40.746944,-73.983926,Starbucks,40.74850250000001,-73.9851667
603,Robotgalaxy,New York,USA,40.737216,-73.990947,Starbucks,40.73634699999999,-73.99107599999999
604,Sonopia,Menlo Park,USA,37.477944,-122.151234,Starbucks,37.480185,-122.151151
605,3Leaf,Santa Clara,USA,37.381034,-121.971487,Starbucks,37.3811059,-121.9744109
606,"ServusXchange, LLC",Pompano Beach,USA,26.2341552,-80.1540226,,,
607,WildBlue,Englewood,USA,39.6478,-104.9875,,,
608,Iken Solutions,Buenos Aires,ARG,-34.4942649,-58.5511077,,,
609,Fuego Nation,San Francisco,USA,37.775196,-122.419204,Starbucks,37.7770595,-122.417347
610,Dragonfly,New York,USA,40.756054,-73.986951,Starbucks,40.7567274,-73.9858802
611,Jasper Wireless,Mountain View,USA,37.394392,-122.04221,,,
612,Kickfire,Santa Clara,USA,37.381876,-121.95993,,,
613,RingCube Technologies,Mountain View,USA,37.3915589,-122.0702643,,,
614,RJMetrics,Philadelphia,USA,39.9443552,-75.1257381,,,
615,Transera Communications,Sunnyvale,USA,37.3521697,-122.0622892,,,
616,Aquest Systems,Sunnyvale,USA,37.390956,-122.032795,Starbucks,37.3882714,-122.0303535
617,Double Fusion,San Francisco,USA,37.7887135,-122.3927145,Starbucks,37.788417,-122.393662
618,5th Finger,San Francisco,USA,37.7900992,-122.4021988,Starbucks,37.7896675,-122.4019931
619,Pano Logic,Menlo Park,USA,37.477037,-122.15164,,,
620,Tendril,Boulder,USA,40.026422,-105.228284,,,
621,SundaySky,Tel Aviv,ISR,32.1115098,34.8388443,,,
622,Xumii,San Mateo,USA,37.563585,-122.324621,Starbucks,37.562897,-122.323927
623,Xumii,North Sydney,AUS,-33.924567,151.038064,,,
624,ScaleMP,Cupertino,USA,37.3229727,-122.0385792,Starbucks,37.3239724,-122.03642
625,Nangate,Sunnyvale,USA,37.4043966,-122.0213965,,,
626,Nangate,New Delhi,IND,28.53536,77.2419522,Starbucks,28.5341408,77.2429429
627,F-Origin,Pleasanton,USA,37.666359,-121.884589,,,
628,Vocalocity,Atlanta,USA,33.7812614,-84.3675617,Starbucks,33.780223,-84.368832
629,Certess,Campbell,USA,37.295516,-121.960102,Starbucks,37.2946671,-121.9627709
630,Zeugma Systems,"Richmond, BC",CAN,49.1739359,-123.071751,,,
631,Ruckus Wireless,Sunnyvale,USA,37.3913,-122.037538,,,
632,VisualOn,Santa Clara,USA,37.270518,-121.955879,,,
633,Heyzap,San Francisco,USA,37.7905538,-122.4041485,Starbucks,37.79067,-122.403891
634,Meez,San Francisco,USA,37.785271,-122.397582,Starbucks,37.784833,-122.39996
635,SparkBase,Cleveland,USA,41.513652,-81.666101,,,
636,6th Sense Analytics,Morrisville,USA,35.864045,-78.820816,,,
637,KlickSports,Los Angeles,USA,34.0431973,-118.445584,,,
638,PEX Card,New York,USA,40.752539,-73.987871,Starbucks,40.753668,-73.988402
639,Open Kernel Labs,Chicago,USA,41.878984,-87.637,Starbucks,41.878874,-87.63592899999999
640,Xangati,San Jose,USA,37.32136,-122.014616,Starbucks,37.323404,-122.011309
641,RockeTalk,Puthanathani,IND,32.895605,-117.188893,,,
642,ZinkoTek,San Rafael,USA,38.0148706,-122.5411756,,,
643,UpSpring,Austin,USA,30.396276,-97.732769,,,
644,Corefino,Sunnyvale,USA,37.384206,-121.992805,,,
645,Qualvu,Lakewood,USA,39.661171,-105.352174,,,
646,HiWired,Needham,USA,42.2960173,-71.2128734,,,
647,Verified Identity Pass,Palm Coast,USA,29.598713,-81.222298,,,
648,Power Analog Microelectronics,Santa Clara,USA,37.3767076,-121.997483,,,
649,NoiseFree,Sunnyvale,USA,37.3868616,-121.9917771,,,
650,Neuralitic Systems,"MontrÃ©al, Qc",CAN,45.5044288,-73.5570651,Starbucks,45.5054333,-73.5582776
651,Shocking Technologies,San Jose,USA,37.261986,-121.784279,,,
652,Mobius Microsystems,Sunnyvale,USA,37.377787,-122.029217,Starbucks,37.37645,-122.031566
653,Appscio,Freedom,USA,36.9397206,-121.7768449,Starbucks,36.940026,-121.775378
654,FastScaleTechnology,Santa Clara,USA,37.370056,-121.973157,,,
655,Comixology,New York,USA,40.740512,-73.987794,Starbucks,40.740194,-73.986767
656,Apprion,Mountain View,USA,37.417485,-122.075789,Starbucks,37.415785,-122.077546
657,Vantrix,"Montreal, Quebec",CAN,45.4949481,-73.5740025,Starbucks,45.4966371,-73.5729952
658,NEXAGE,Boston,USA,37.4777028,-121.9250553,,,
659,Quantum Secure,San Jose,USA,37.367838,-121.915594,Starbucks,37.37096289999999,-121.9171986
660,SpaceClaim,Concord,USA,42.462373,-71.387308,,,
661,MiNOWireless,Santa Clara,USA,37.404044,-121.978956,,,
662,burrp!,Mumbai,IND,19.017656,72.856178,,,
663,Carrier IQ,Mountain View,USA,37.3955775,-122.0833286,,,
664,KODA,San Francisco,USA,37.788796,-122.40971,Starbucks,37.789146,-122.408456
665,KODA,New Orleans,USA,29.9739941,-90.0822015,,,
666,VidSys,Marlborough,USA,42.338955,-71.595339,,,
667,VidSys,Vienna,USA,38.9160555,-77.230947,,,
668,Cyan,Petaluma,USA,38.2743225,-122.6670066,Starbucks,38.275984,-122.668159
669,Ginger Software,Lexington,USA,42.4352222,-71.2344601,,,
670,TechForward,Los Angeles,USA,34.146503,-118.613385,,,
671,Mobifusion,,USA,37.552104,-121.9780378,,,
672,Medio,Seattle,USA,47.611827,-122.331308,Starbucks Reserve Roastery,47.614039,-122.328079
673,Socialize,San Francisco,USA,38.88521,-76.998641,Starbucks,38.88364199999999,-76.99518599999999
674,Etology,Foster City,USA,37.561111,-122.270487,Starbucks,37.559204,-122.2673
675,Gecko Audio,Palo Alto,USA,37.437328,-122.159928,,,
676,Casabi,Campbell,USA,37.293687,-121.934573,Starbucks,37.294733,-121.930948
677,Casabi,Paris,FRA,48.8722501,2.3283343,Starbucks Coffee,48.87024719999999,2.3273903
678,Space-Time Insight,San Mateo,USA,37.555773,-122.27977,Starbucks,37.556934,-122.27598
679,Verve Mobile,Encinitas,USA,33.03898,-117.293385,Starbucks,33.040176,-117.292862
680,WANdisco,San Ramon,USA,37.769205,-121.966395,,,
681,WANdisco,Sheffield,GBR,53.3800107,-1.4629301,Starbucks Coffee,53.3803827,-1.4679516
682,Delphix,Menlo Park,USA,37.4239496,-122.1011815,,,
683,Zapproved,Portland,USA,45.5251,-122.8097,,,
684,7 Billion People,Austin,USA,30.408322,-97.748077,,,
685,Fortumo,Tartu,EST,58.3754107,26.7212208,,,
686,Fortumo,San Francisco,USA,59.42145,24.8021233,,,
687,Mashup Arts,Halifax,CAN,43.648786,-79.3777473,Starbucks,43.64928219999999,-79.3782595
688,Tinychat,Glen Cove,USA,42.3756409,-72.5196907,Starbucks,42.376776,-72.51961899999999
689,Punch Entertainment,Palo Alto,USA,37.4233698,-122.0986859,Starbucks,37.4218,-122.096419
690,YOUnite,Mountain View,USA,37.388077,-122.08316,Starbucks,37.387571,-122.083068
691,Geewa,Prague 8,CZE,50.0938491,14.4505336,Starbucks,50.0939253,14.4517953
692,Pocket Communications Northeast,Bloomfield,USA,41.853615,-72.70375,,,
693,Intercasting,San Diego,USA,32.718834,-117.163841,,,
694,L4 Mobile,Seattle,USA,47.676762,-122.2049192,Starbucks,47.675855,-122.206581
695,AppNeta,SOUTH BOSTON,USA,42.318138,-71.24756,,,
696,AirPatrol Corporation,Burnaby,CAN,49.2549899,-122.9170962,,,
697,AppZero,Andover,USA,42.6751888,-71.1469003,,,
698,M3X Media,West Palm Beach,USA,26.72868,-80.099946,,,
699,Crispy Gamer,New York,USA,40.750597,-73.985273,Starbucks,40.751009,-73.987141
700,Conveneer,Lund,SWE,55.714683,13.2170029,,,
701,UnboundID,Austin,USA,30.498112,-97.777273,,,
702,Viridity Software,Burlington,USA,42.4871509,-71.1986329,,,
703,Optify,Seattle,USA,47.603364,-122.333359,Starbucks,47.6041558,-122.3308269
704,Unity Technologies,San Francisco,USA,55.6924605,12.530107,,,
705,Evostor,Campbell,USA,37.232902,-121.964385,Starbucks Reserve,37.235607,-121.964498
706,IGLOO Software,Kitchener,CAN,43.4496954,-80.487328,,,
707,Jama Software,Portland,USA,45.5309644,-122.68038,Starbucks,45.52990399999999,-122.6825529
708,iPharro Media,Darmstadt,DEU,49.8740096,8.6605881,,,
709,iPharro Media,New York,USA,40.7438356,-73.9890149,Starbucks,40.743839,-73.988846
710,Rebit,Longmont,USA,40.146898,-105.1350397,Starbucks,40.147331,-105.13144
711,Powervation,San JOSE,USA,37.442601,-122.162159,,,
712,AnySource Media,Malvern,USA,40.054547,-75.515376,,,
713,SpaBooker,New York,USA,40.738567,-73.987199,Starbucks,40.738003,-73.988502
714,Zinwave,Cambridge,GBR,52.1367844,0.0732335,,,
715,Zinwave,Woodland Hills,USA,34.185596,-118.596228,Starbucks,34.187788,-118.599239
716,Infobright,"Toronto, Ontario",CAN,43.6490631,-79.3749698,Starbucks,43.6487479,-79.37251189999999
717,Infobright,Chicago,USA,42.377467,-71.401307,,,
718,Owlient,Paris,FRA,48.8308091,2.3032201,,,
719,SCVNGR,Boston,USA,42.3406534,-71.0680027,,,
720,Transfer To,Singapore,SGP,1.3006925,103.8575356,Starbucks,1.3011894,103.8572771
721,Transfer To,Palo Alto,USA,40.705255,-74.010983,Starbucks,40.705162,-74.01133
722,GameChanger Media,New York,USA,40.7078343,-74.0136605,Starbucks,40.706806,-74.012968
723,Z2Live,Seattle,USA,47.6103008,-122.3399782,Starbucks,47.6090095,-122.3399417
724,Livescribe,Stockholm,SWE,59.3179118,18.0339733,,,
725,Tongal,Santa Monica,USA,34.007112,-118.489748,,,
726,Ranker,Los Angeles,USA,34.1012181,-118.325739,Starbucks,34.101484,-118.3265
727,Preview Networks,Copenhagen,DNK,55.6659813,12.5800751,,,
728,Musicmetric,London,GBR,51.5253765,-0.0856982,Starbucks Coffee,51.5262525,-0.08800519999999999
729,HealthEngine,Perth,AUS,-31.97822,115.89084,,,
730,Openbravo,Barcelona,ESP,41.3935324,2.1660785,Starbucks,41.3929045,2.1654015
731,Newser,Chicago,USA,41.879535,-87.624333,Starbucks,41.879435,-87.624625
732,Smallaa,San Jose,USA,37.39458,-121.928393,,,
733,Basho Technologies,Cambridge,USA,42.365867,-71.092285,,,
734,Phurnace Software,Austin,USA,30.271393,-97.748623,,,
735,Smash Technologies,"Pittsburgh,",USA,40.4290508,-79.9707345,,,
736,Factery,Menlo Park,USA,37.4484914,-122.1802812,Starbucks,37.4509304,-122.178747
737,Busca Corp,La Jolla,USA,32.841791,-117.274602,Starbucks,32.842596,-117.271991
738,Busca Corp,"Tijuana, B.C.",MEX,32.5217442,-117.0274947,,,
739,Busca Corp,Mexico City,MEX,19.4164309,-99.1651395,,,
740,Milo,Palo Alto,USA,37.444531,-122.163352,Starbucks,37.446791,-122.160561
741,Kidlandia,SAN FRANCISCO,USA,37.8017938,-122.4043215,Starbucks,37.802887,-122.402977
742,textPlus,Marina del Rey,USA,33.984469,-118.43679,Starbucks,33.985106,-118.43958
743,Servo Software,San Mateo,USA,37.552262,-122.292146,,,
744,ColdLight Solutions,Wayne,USA,40.075096,-75.42402,,,
745,VKernel Corporation,Boston,USA,42.3497366,-71.0491901,Starbucks,42.3514618,-71.0504454
746,Mobidia Technology,Richmond,CAN,49.1859246,-123.1072471,,,
747,Shareaholic,Boston,USA,42.3647559,-71.1032591,Starbucks,42.365628,-71.10375
748,Sand 9,Cambridge,USA,42.3488891,-71.1068046,Starbucks,42.35115330000001,-71.1089588
749,First Coverage,"Toronto, ON",CAN,43.6878093,-79.3958388,Starbucks,43.68851189999999,-79.39393
750,First Coverage,Boston,USA,42.356931,-71.053991,Starbucks,42.355905,-71.05275999999999
751,Bigfoot Networks,Redwood City,USA,37.536402,-122.325129,Starbucks,37.534018,-122.326154
752,Bigfoot Networks,Austin,USA,30.42845,-97.748816,,,
753,Playdom,Palo Alto,USA,37.393536,-122.076747,,,
754,Firm58,Chicago,USA,41.879641,-87.6425816,Starbucks,41.8794042,-87.6408727
755,Firm58,New York,USA,40.766734,-73.988265,Starbucks,40.76915,-73.988233
756,Elanti Systems,Somerset,USA,40.535316,-74.521435,Micro starbucks,40.5370435,-74.5192521
757,Illumitex,Austin,USA,30.239294,-97.838813,,,
758,Marketcetera,San Francisco,USA,37.788864,-122.4008487,Starbucks,37.788673,-122.400874
759,Veeva,Pleasanton,USA,37.69249,-121.900722,,,
760,Lightning Gaming,Boothwyn,USA,39.8728373,-75.4784988,,,
761,Aria Networks,Chippenham,GBR,51.4515283,-2.1334555,,,
762,Garlik,Richmond,GBR,51.462108,-0.295441,,,
763,Garlik,New York,USA,40.7615818,-73.970624,Starbucks,40.761316,-73.96903499999999
764,Saavn,New York,USA,40.743877,-73.98618,Starbucks,40.7449904,-73.9868247
765,Social Solutions,Baltimore,USA,39.281734,-76.581864,Starbucks,39.280753,-76.580356
766,Syntensia,Stockholm,SWE,59.6121259,17.8947672,,,
767,PlantSense,San Francisco,USA,37.7697623,-122.4183929,Starbucks,37.7700385,-122.4161985
768,My-Hammer,Berlin,DEU,52.5092312,13.3883606,Starbucks,52.5111048,13.3899791
769,The Resumator,Pittsburgh,USA,40.438423,-80.001933,Starbucks,40.440254,-80.002256
770,OutSmart Power Systems,Natick,USA,42.2968126,-71.3876282,Starbucks,42.298067,-71.38710499999999
771,ShopSavvy,San Francsico,USA,37.7770719,-122.3966273,Starbucks,37.777035,-122.393641
772,BeeTV,Milan,ITA,45.4636889,9.1881408,STARBUCKS RESERVE® ROASTERY Milano,45.4648798,9.186104499999999
773,GameGround,New York,USA,40.756054,-73.986951,Starbucks,40.7567274,-73.9858802
774,Blip,Santa Monica,USA,34.0272246,-118.4682333,,,
775,Althea Systems,Bangalore,IND,12.9349604,77.6136847,Starbucks Coffee House,12.9351626,77.6134972
776,Novasentis,State College,USA,40.830662,-77.844388,,,
777,isango!,London,GBR,51.519816,-0.1361616,Starbucks Coffee,51.52070879999999,-0.134725
778,uControl,Austin,USA,30.3542873,-97.7976572,,,
779,Vyatta,Belmont,USA,37.524422,-122.265869,,,
780,Ykone,Paris,FRA,48.8566667,2.3509871,Starbucks,48.8568201,2.3548934
781,Moviepilot,Berlin,DEU,52.4947266,13.398504,,,
782,Moviepilot,Los Angeles,USA,34.0522342,-118.2436849,Starbucks,34.050984,-118.242338
783,Forterra Systems,San Mateo,USA,37.561576,-122.284173,Starbucks,37.5590258,-122.2830814
784,FastSoft,Pasadena,USA,34.142973,-118.140553,Starbucks,34.145683,-118.143233
785,Layar,Amsterdam,NLD,52.3657578,4.8928722,STARBUCKS The Bank Rembrandtplein,52.3659541,4.8977405
786,INRIX,Kirkland,USA,47.6434969,-122.2033998,,,
787,Global Fitness Media,Los Angeles,USA,34.054318,-118.462876,Starbucks,34.053737,-118.466101
788,BPL Global,Sewickley,USA,40.612461,-80.098299,,,
789,Accellos,Colorado Springs,USA,38.833716,-104.826256,Starbucks,38.8336121,-104.8266909
790,VendAsta,Saskatoon,CAN,52.143886,-106.6634565,,,
791,Pontis,Ra’anana,ISR,32.1980455,34.8824253,,,
792,Pontis,Capital Federal,ARG,-34.5631882,-58.4541925,Starbucks,-34.5628359,-58.4562772
793,Exalt Communications,Campbell,USA,37.2628816,-121.9602134,,,
794,20:20 Mobile,"Crewe, Cheshire",ARE,53.0842802,-2.423658,,,
795,CrowdGather,Woodland Hills,USA,34.168955,-118.575293,,,
796,Azingo,Sunnyvale,USA,37.382162,-122.036301,,,
797,Omni-ID,Foster City,USA,37.561111,-122.270487,Starbucks,37.559204,-122.2673
798,Aveksa,Waltham,USA,42.3988661,-71.253781,,,
799,Aveksa,Bangalore,IND,12.9346716,77.6317612,,,
800,Mobiles Republic,Bordeaux Cedex,FRA,44.8743952,-0.5754294,,,
801,Edgeware,STOCKHOLM,SWE,59.3326694,18.0523253,Starbucks Stockholm Central Station,59.3305951,18.057374
802,Edgeware,San Jose,USA,37.3403284,-121.8864433,Starbucks,37.33738,-121.888408
803,FireScope,Huntington Beach,USA,33.664705,-118.012553,,,
804,FireScope,Carrollton,USA,33.0353,-96.9274,,,
805,FireScope,Sydney,AUS,-33.867139,151.207114,Starbucks,-33.8652185,151.2054493
806,FireScope,London,GBR,51.5001524,-0.1262362,,,
807,High Gear Media,Menlo Park,USA,37.445335,-122.15833,Starbucks,37.446791,-122.160561
808,ChallengePost,New York,USA,40.7408042,-74.00717,Starbucks Reserve New York Roastery,40.7405581,-74.0059674
809,DeciZium,San Jose,USA,37.337756,-121.89435,Starbucks,37.335283,-121.892859
810,ISIS sentronics,,DEU,48.265012,13.0305666,,,
811,StyleCaster,New York City,USA,40.7450497,-73.9900984,Starbucks,40.74525,-73.99086799999999
812,Grain Management,Sarasota,USA,27.3372319,-82.5309605,,,
813,Teambox,Barcelona,ESP,41.4063346,2.1920231,Starbucks,41.4049021,2.1912858
814,Testplant,London,GBR,51.517356,-0.1037742,Starbucks,51.5165386,-0.1033868
815,Testplant,Boulder,USA,40.0230047,-105.2532841,Starbucks,40.021885,-105.25653
816,Culture Jam,Los Angeles,USA,34.0137151,-118.4660597,,,
817,Clavis Technology,Cambridge,USA,42.3626626,-71.084153,Starbucks,42.363041,-71.08592999999999
818,Equiendo,Nangor Road,IRL,53.3370743,-6.2518914,,,
819,Continuity Engine,New Haven,USA,41.3279176,-73.2435522,,,
820,Incuity Software,Mission Viejo,USA,33.6640874,-117.6325191,,,
821,Tiny Speck,Vancouver,CAN,49.2824551,-123.109217,Starbucks,49.2844427,-123.108513
