,name,city,country,latitude,longitude,starbucks,starbucks_lat,starbucks_lon
0,Wetpaint,Seattle,USA,47.603122,-122.333253,Starbucks,47.6041558,-122.3308269
1,Wetpaint,New York,USA,40.7237306,-73.9964312,Starbucks,40.722553,-73.997942
2,Slacker,San Diego,USA,33.022176,-117.081406,Starbucks,33.0234909,-117.0818371
3,Babelgum,London,GBR,53.344104,-6.267494,Starbucks Crampton Quay,53.346055,-6.2623945
4,Mahalo,Culver City,USA,34.017606,-118.487267,Starbucks,34.0172403,-118.489752
5,Kyte,San Francisco,USA,37.788482,-122.409173,Starbucks,37.789146,-122.408456
6,Wesabe,San Francisco,USA,37.793148,-122.402567,Starbucks,37.792183,-122.40377
7,AdaptiveBlue,NYC,USA,40.801358,-74.3372,Starbucks,40.798594,-74.340772
8,Pando Networks,New York,USA,40.722655,-73.99873,Starbucks,40.722553,-73.997942
9,Livestream,New York,USA,40.726155,-73.995625,Starbucks,40.727212,-73.995485
10,YouTube,San Bruno,USA,37.627971,-122.426804,Starbucks,37.62572919999999,-122.4260703
11,CastTV,San Francisco,USA,37.780716,-122.393913,Starbucks,37.77867,-122.396701
12,EQO,Vancouver,CAN,49.263588,-123.138565,Starbucks,49.26313769999999,-123.1388466
13,iSkoot,Cambridge,USA,42.375392,-71.118487,Starbucks Reserve,42.373333,-71.119214
14,iSkoot,San Francisco,USA,37.780134,-122.396744,Starbucks,37.77867,-122.396701
15,Netvibes,Paris,FRA,48.870806,2.34668,Starbucks,48.8706754,2.3469117
16,FeedBurner,Chicago,USA,41.889474,-87.628912,Starbucks,41.89016000000001,-87.63125099999999
17,WeFi,Fairfax,USA,37.09024,-95.712891,United States,37.09024,-95.712891
18,TVtrip,Paris,FRA,48.856667,2.350987,Starbucks,48.8568201,2.3548934
19,Bebo,San Francisco,USA,37.782103,-122.401116,Starbucks,37.784833,-122.39996
20,FlickIM,Berkeley,USA,37.870744,-122.269259,Starbucks,37.868791,-122.268212
21,Loomia,San Francisco,USA,37.796396,-122.404869,Starbucks,37.794632,-122.402728
22,Terabitz,Palo Alto,USA,37.437328,-122.159928,Peet's Coffee,37.4380642,-122.159322
23,Eventbrite,San Francisco,USA,37.779507,-122.39071,Starbucks,37.777035,-122.393641
24,Seesmic,San Francisco,USA,37.775196,-122.419204,Starbucks,37.7770595,-122.417347
25,Flixster,San Francisco,USA,37.766909,-122.406676,Starbucks,37.7658845,-122.4034908
26,spigit,Pleasanton,USA,37.6637279,-121.8731805,Starbucks,37.660676,-121.875909
27,spigit,Reston,USA,38.9590083,-77.3592746,Starbucks,38.958891,-77.35914
28,spigit,London,GBR,51.5170385,-0.1394759,Starbucks Coffee,51.514458,-0.142504
29,Jaxtr,Menlo Park,USA,37.451026,-122.18676,Starbucks,37.452214,-122.183867
30,Curse,San Francisco,USA,37.787092,-122.399972,Starbucks,37.787764,-122.401087
31,Vuze,San Mateo,USA,37.4858654,-122.2262606,Starbucks Reserve,37.486332,-122.229944
32,NowPublic,Vancouver,CAN,49.283376,-123.103986,Starbucks,49.2844427,-123.108513
33,Retrevo,Sunnyvale,USA,37.368594,-122.034021,Starbucks,37.3686003,-122.0356701
34,Tangler,Mountain View,USA,37.386665,-122.084171,Starbucks,37.387571,-122.083068
35,Revver,Los Angeles,USA,34.052187,-118.243425,Starbucks,34.050984,-118.242338
36,Flock,Menlo Park,USA,37.491356,-122.228843,Starbucks,37.490422,-122.225101
37,Dropbox,San Francisco,USA,37.7909427,-122.4084994,Starbucks,37.789348,-122.406831
38,Kongregate,San Francisco,USA,37.786942,-122.401245,Starbucks,37.787764,-122.401087
39,DanceJam,San Francisco,USA,37.781557,-122.407959,Starbucks,37.7841086,-122.4076337
40,Yola,San Francisco,USA,37.7911148,-122.3954751,Starbucks Reserve,37.791511,-122.395103
41,Filtrbox,Palo Alto,USA,40.010492,-105.276843,Starbucks,40.010728,-105.276648
42,BitTorrent,San Francisco,USA,37.790998,-122.394668,Starbucks Reserve,37.791511,-122.395103
43,Doostang,Palo Alto,USA,37.427235,-122.145783,Starbucks,37.426867,-122.144091
44,Vlingo,Cambridge,USA,42.372912,-71.118999,Starbucks Reserve,42.373333,-71.119214
45,Docstoc,Santa Monica,USA,34.018275,-118.495025,Starbucks,34.0157416,-118.4965857
46,Shock Treatment Management,Seattle,USA,47.610332,-122.339859,Starbucks,47.6090095,-122.3399417
47,DotBlu,San Francisco,USA,37.09024,-95.712891,United States,37.09024,-95.712891
48,sezmi,Santa Monica,USA,34.017373,-118.453218,Starbucks,34.019731,-118.454721
49,SpiralFrog,New York,USA,37.09024,-95.712891,United States,37.09024,-95.712891
50,MocoSpace,Boston,USA,42.350274,-71.058768,Starbucks,42.35223999999999,-71.05597
51,Thumbplay,New York,USA,40.725435,-73.997395,Starbucks,40.727212,-73.995485
52,Wonga,London,GBR,51.5192042,-0.1626103,Starbucks,51.5223174,-0.1635591
53,SayNow,Palo Alto,USA,37.42746,-122.143915,Starbucks,37.426867,-122.144091
54,Crunchyroll,San Francisco,USA,37.781265,-122.393229,Starbucks,37.77867,-122.396701
55,OMGPOP,New York,USA,40.723384,-74.001704,Starbucks,40.722553,-73.997942
56,Behance,New York,USA,40.74406,-74.004592,Starbucks,40.741128,-74.0013013
57,FlowPlay,Seattle,USA,47.6015315,-122.335943,Starbucks,47.601606,-122.333974
58,Viewpoints,Chicago,USA,41.890376,-87.63406,Starbucks,41.888639,-87.63452
59,RatePoint,Needham,USA,42.296111,-71.238524,Starbucks,42.29325100000001,-71.235089
60,mig33,Singapore,SGP,37.580304,-122.343679,Starbucks,37.579393,-122.346144
61,GamerDNA,Cambridge,USA,42.375392,-71.118487,Starbucks Reserve,42.373333,-71.119214
62,SpeedDate,San Mateo,USA,37.557637,-122.285714,Starbucks,37.5590258,-122.2830814
63,Animoto,New York,USA,40.72948,-74.000195,Starbucks,40.730715,-74.002585
64,Metaplace,Solana Beach,USA,33.020832,-117.077311,Starbucks,33.017974,-117.07371
65,Xobni,San Francisco,USA,37.789634,-122.404052,Starbucks,37.7884614,-122.4034092
66,Worklight,New York,USA,40.756799,-73.976348,Starbucks,40.757077,-73.97596899999999
67,Mobivox,Montreal,CAN,45.500277,-73.560084,Starbucks,45.5007393,-73.55924
68,3Jam,San Francisco,USA,37.765125,-122.4044034,Starbucks,37.7658845,-122.4034908
69,Wikinvest,San Francisco,USA,37.775196,-122.419204,Starbucks,37.7770595,-122.417347
70,RayV,New York,USA,40.781159,-73.978332,Starbucks,40.781017,-73.98101799999999
71,Polyvore,Mountain View,USA,37.386175,-122.083487,Starbucks,37.387571,-122.083068
72,Treemo Labs,Seattle,USA,47.620716,-122.347533,Starbucks,47.62103949999999,-122.3507743
73,Tumblr,New York,USA,40.743808,-73.983626,Starbucks,40.744169,-73.983712
74,EchoSign,Palo Alto,USA,37.445326,-122.160671,Starbucks,37.446791,-122.160561
75,Eurekster,,USA,37.790992,-122.40188,Starbucks,37.790184,-122.402101
76,Songbird,San Francisco,USA,37.787126,-122.39783,Starbucks,37.784833,-122.39996
77,Disqus,San Francisco,USA,37.786906,-122.397672,Starbucks,37.784833,-122.39996
78,Pelago,Seattle,USA,47.607065,-122.335373,Starbucks,47.607304,-122.334259
79,Faves,Seattle,USA,47.603327,-122.334983,Starbucks,47.60378799999999,-122.335678
80,Plazes,Berlin,DEU,52.523402,13.398694,Starbucks,52.52329,13.40217
81,Vringo,New York,USA,40.7550005,-73.9717364,Starbucks,40.75416999999999,-73.971732
82,RepairPal,Emeryville,USA,37.838225,-122.296411,Starbucks,37.8366108,-122.2951415
83,Zmags,Copenhagen,DNK,55.6839208,12.571492,Starbucks,55.6837993,12.5707606
84,Zmags,London,GBR,51.5111369,-0.1247662,Starbucks Coffee,51.5123341,-0.1216241
85,Loopt,Mountain View,USA,37.384717,-122.081625,Starbucks,37.387571,-122.083068
86,RealSelf,Seattle,USA,47.620716,-122.347533,Starbucks,47.62103949999999,-122.3507743
87,GeoSentric,Amsterdam,NLD,37.09024,-95.712891,United States,37.09024,-95.712891
88,GameLayers,San Francisco,USA,37.803847,-122.402468,Starbucks,37.802887,-122.402977
89,Zoji,Seattle,USA,47.620716,-122.347533,Starbucks,47.62103949999999,-122.3507743
90,WEbook,New York,USA,38.984172,-77.095965,Starbucks,38.9843169,-77.0945739
91,Youku,Shanghai,CHN,31.2006566,121.4384701,Starbucks,31.19772,121.4369511
92,betNOW,London,GBR,51.511599,-0.126389,Starbucks Coffee,51.5123341,-0.1216241
93,Jott,Seattle,USA,47.6139472,-122.327807,Starbucks Reserve Roastery,47.614039,-122.328079
94,Deezer,Paris,FRA,48.8780596,2.3283853,Starbucks,48.87645999999999,2.326762
95,TradeKing,Fort Lauderdale,USA,26.119102,-80.1343038,Starbucks,26.122237,-80.137046
96,HubSpot,Cambridge,USA,42.375392,-71.118487,Starbucks Reserve,42.373333,-71.119214
97,BeliefNet,New York,USA,40.740231,-73.985433,Starbucks,40.74054,-73.98422099999999
98,HubPages,San Francisco,USA,37.7876952,-122.3991505,Starbucks,37.788673,-122.400874
99,Ribbit,Mountain View,USA,37.386665,-122.084171,Starbucks,37.387571,-122.083068
100,WeShow,New York,USA,40.752516,-73.973072,Starbucks,40.751558,-73.97361699999999
101,RipCode,Austin,USA,30.402252,-97.748795,Starbucks,30.401952,-97.746882
102,PlayFirst,San Francisco,USA,37.790346,-122.40185,Starbucks,37.7896675,-122.4019931
103,Qik,Redwood City,USA,37.486368,-122.230116,Starbucks Reserve,37.486332,-122.229944
104,Delve Networks,Seattle,USA,47.600818,-122.334117,Starbucks,47.601606,-122.333974
105,Bunchball,Redwood City,USA,37.3208403,-121.9479223,Starbucks,37.320964,-121.949113
106,SugarCRM,Cupertino,USA,37.323739,-122.014147,Starbucks,37.323404,-122.011309
107,Outspark,San Francisco,USA,37.775196,-122.419204,Starbucks,37.7770595,-122.417347
108,yoonew,New York,USA,40.75362,-73.986557,Starbucks,40.754361,-73.987257
109,Roost,San Francisco,USA,37.7891288,-122.4020276,Starbucks,37.7884614,-122.4034092
110,Zynga,San Francisco,USA,37.765158,-122.404234,Starbucks,37.7658845,-122.4034908
111,clipsync,San Francisco,USA,37.2906027,-121.9317853,Starbucks,37.292828,-121.930574
112,Lookery,San Francisco,USA,37.788266,-122.403865,Starbucks,37.7884614,-122.4034092
113,Sharetivity,Palo Alto,USA,37.550954,-122.315396,Starbucks,37.552243,-122.31386
114,VisualCV,Reston,USA,38.9530391,-77.3479238,Starbucks,38.95201,-77.347456
115,RocketOn,South San Francisco,USA,37.65466,-122.40788,Starbucks,37.655213,-122.410901
116,stickK,New York,USA,40.744837,-73.983843,Starbucks,40.744169,-73.983712
117,Snap Technologies,Pasadena,USA,34.146436,-118.153136,Starbucks,34.145914,-118.152542
118,Qype,Hamburg,DEU,53.54598,9.987181,Starbucks,53.5486926,9.987982599999999
119,MOG,Berkeley,USA,37.872222,-122.268403,Starbucks,37.870434,-122.266083
120,Social Gaming Network,Los Angeles,USA,37.446823,-122.161523,Starbucks,37.446791,-122.160561
121,Social Gaming Network,Beverly Hills,USA,34.0698494,-118.4054182,Starbucks,34.0705899,-118.4023581
122,Foneshow,Portland,USA,43.657058,-70.253959,Starbucks,43.657582,-70.254661
123,doubleTwist,San Francisco,USA,37.775196,-122.419204,Starbucks,37.7770595,-122.417347
124,Grooveshark,Gainesville,USA,29.6502461,-82.3230981,Starbucks,29.649743,-82.32368699999999
125,FameCast,Austin,USA,30.268735,-97.745209,Starbucks,30.268259,-97.74295599999999
126,Redux,Berkeley,USA,37.87168,-122.269494,Starbucks,37.870434,-122.266083
127,Raptr,Mountain View,USA,37.40384,-122.07808,Starbucks,37.403017,-122.079089
128,HipLogic,Fremont,USA,37.5541073,-121.9756765,Starbucks,37.553362,-121.973852
129,Inform Technologies,New York,USA,40.744639,-73.983963,Starbucks,40.744169,-73.983712
130,SendMe,San Francisco,USA,37.787126,-122.39783,Starbucks,37.784833,-122.39996
131,Blog Talk Radio,New York,USA,40.757929,-73.985506,Starbucks,40.75766,-73.98508
132,Tiny Pictures,San Francisco,USA,37.781002,-122.406912,Starbucks,37.7841086,-122.4076337
133,Issuu,Palo Alto,USA,37.4784804,-122.1514101,Starbucks,37.480185,-122.151151
134,Outbrain,New York City,USA,40.757929,-73.985506,Starbucks,40.75766,-73.98508
135,MoFuse,Providence,USA,41.826956,-71.408718,Starbucks,41.8252513,-71.4098695
136,Phreesia,New York,USA,40.739794,-73.985878,Starbucks,40.740194,-73.986767
137,99designs,San Francisco,USA,37.7955307,-122.4005983,Starbucks,37.79510399999999,-122.400508
138,Generate,New York,USA,40.7570972,-73.969821,Starbucks,40.75743,-73.969128
139,Ifbyphone,Chicago,USA,42.040851,-87.750643,Starbucks,42.040516,-87.751859
140,Kareo,Irvine,USA,33.676444,-117.8587,Starbucks,33.6785656,-117.8624091
141,Tripology,New York,USA,40.746883,-73.983969,Starbucks,40.74850250000001,-73.9851667
142,Giant Realm,New York,USA,40.7566658,-73.9827553,Starbucks,40.75559,-73.984106
143,Global Roaming,Miami,USA,25.9690885,-80.1417742,Starbucks,25.9668838,-80.1422518
144,DailyStrength,Los Angeles,USA,34.043948,-118.468204,Starbucks,34.045001,-118.467267
145,Clarizen,San Mateo,USA,37.536044,-122.328401,Starbucks,37.534018,-122.326154
146,Skydeck,Palo Alto,USA,37.5645375,-122.3254705,Starbucks,37.562897,-122.323927
147,Next New Networks,New York,USA,40.743808,-73.983626,Starbucks,40.744169,-73.983712
148,Zuora,Foster City,USA,37.5596277,-122.2709868,Starbucks,37.56095,-122.273902
149,Elastra,San Francisco,USA,37.791137,-122.391843,Starbucks,37.791311,-122.392268
150,Star Analytics,San Mateo,USA,37.556152,-122.281484,Starbucks,37.5590258,-122.2830814
151,KidZui,San Diego,USA,37.09024,-95.712891,United States,37.09024,-95.712891
152,Mytopia,Palo Alto,USA,34.007967,-118.489681,Starbucks,34.010735,-118.4915543
153,Netbooks,San Francisco,USA,37.79471,-122.40195,Starbucks,37.794632,-122.402728
154,7digital,London,GBR,51.5254,-0.083726,Starbucks Coffee,51.5262525,-0.08800519999999999
155,Kannuu,Dallas,USA,32.9249424,-96.7679229,Starbucks,32.92510499999999,-96.769965
156,The Echo Nest,Somerville,USA,42.396495,-71.12045,Starbucks,42.3956589,-71.1222928
157,Business Insider,New York,USA,40.73906,-73.990911,Starbucks,40.740442,-73.99122799999999
158,Perfect Market,Pasadena,USA,34.146436,-118.153136,Starbucks,34.145914,-118.152542
159,Zemanta,London,GBR,51.5141566,-0.0934254,Starbucks Coffee,51.5146144,-0.09615549999999999
160,Zemanta,New York,USA,40.7387945,-73.9939213,Starbucks,40.737046,-73.996526
161,eYeka,Paris,FRA,48.856667,2.350987,Starbucks,48.8568201,2.3548934
162,Cellufun,New York,USA,40.73993,-73.9930489,Starbucks,40.740442,-73.99122799999999
163,Xoopit,San Francisco,USA,37.7617955,-122.4092704,Starbucks,37.7629128,-122.4104227
164,Austhink Software,"Melbourne, Victoria",AUS,-37.813603,144.96616,Starbucks,-37.8135097,144.9663717
165,Cotendo,Sunnyvale,USA,37.504764,-122.259568,Starbucks,37.506495,-122.260987
166,Cellfish,New York,USA,40.761855,-73.983754,Starbucks,40.762426,-73.98362999999999
167,SiBEAM,Sunnyvale,USA,37.390704,-122.03039,Starbucks,37.3882714,-122.0303535
168,mySupermarket,New York,USA,53.478714,-2.244824,Starbucks,53.47794649999999,-2.2456007
169,mySupermarket,London,GBR,51.513671,-0.159205,Starbucks,51.5141728,-0.1612318
170,Mojiva,New York,USA,40.7185614,-73.998662,Starbucks,40.718252,-73.999961
171,GitHub,San Francisco,USA,37.775196,-122.419204,Starbucks,37.7770595,-122.417347
172,PluggedIn,Santa Monica,USA,34.007967,-118.489681,Starbucks,34.010735,-118.4915543
173,Mirror42,Amsterdam,NLD,52.36702,4.896468,STARBUCKS The Bank Rembrandtplein,52.3659541,4.8977405
174,Apture,San Francisco,USA,37.566042,-122.322954,Starbucks,37.562897,-122.323927
175,MediaScrape,Montreal,CAN,45.545447,-73.639076,Starbucks,45.5431848,-73.63995249999999
176,InMobi,San Francisco,USA,37.4465496,-122.1709208,Starbucks,37.443643,-122.171738
177,InMobi,Singapore,SGP,1.284082,103.851942,Starbucks,1.2842759,103.8520723
178,TeachStreet,Seattle,USA,47.6171788,-122.3370801,Starbucks,47.615675,-122.336894
179,Serious Business,San Francisco,USA,37.7893215,-122.4013624,Starbucks,37.788673,-122.400874
180,KnowledgeTree,Raleigh,USA,35.786975,-78.647003,Starbucks,35.788415,-78.64783299999999
181,Center'd,Menlo Park,USA,37.452992,-122.185098,Starbucks,37.452214,-122.183867
182,Pixsta,London,GBR,51.51819,-0.208979,Starbucks,51.5168329,-0.2058693
183,GodTube,Plano,USA,33.075067,-96.823962,Starbucks,33.074283,-96.82221000000001
184,Yoono,San Francisco,USA,37.787204,-122.397884,Starbucks,37.789545,-122.397592
185,OVGuide,Los Angeles,USA,34.052187,-118.243425,Starbucks,34.050984,-118.242338
186,EatLime,San Francisco,USA,37.7749295,-122.4194155,Starbucks,37.7770595,-122.417347
187,Tyfone,Portland,USA,45.5105,-122.674995,Starbucks,45.513219,-122.675386
188,TuneUp,San Francisco,USA,37.7654195,-122.4119381,Starbucks,37.7629128,-122.4104227
189,Stitcher,San Francisco,USA,37.775196,-122.419204,Starbucks,37.7770595,-122.417347
190,TerraPass,San Francisco,USA,37.787445,-122.397847,Starbucks,37.789545,-122.397592
191,Sometrics,El Segundo,USA,34.048857,-118.251343,Starbucks,34.048976,-118.251847
192,Transpera,San Francisco,USA,37.785792,-122.405081,Starbucks,37.786139,-122.405723
193,Fliqz,Emeryville,USA,37.848641,-122.289498,Starbucks,37.846608,-122.291652
194,Votigo,Boulder,USA,37.8919079,-122.1192743,Starbucks,37.891698,-122.120063
195,PurePlay,San Francisco,USA,37.775196,-122.419204,Starbucks,37.7770595,-122.417347
196,GreenNote,Mather,USA,37.492685,-122.227765,Starbucks,37.490422,-122.225101
197,M:Metrics,Seattle,USA,47.620716,-122.347533,Starbucks,47.62103949999999,-122.3507743
198,B-hive Networks,San Mateo,USA,37.536402,-122.325129,Starbucks,37.534018,-122.326154
199,TeleFlip,Santa Monica,USA,34.01695,-118.451933,Starbucks,34.019731,-118.454721
200,Crowd Science,Toronto,CAN,43.712309,-79.399538,Starbucks,43.711013,-79.3990309
201,WSO2,Palo Alto,USA,37.390918,-122.080843,Peet's Coffee,37.3909601,-122.0811103
202,BumpTop,Toronto,CAN,43.648786,-79.3777473,Starbucks,43.64928219999999,-79.3782595
203,Limbo,Burlingame,USA,37.580304,-122.343679,Starbucks,37.579393,-122.346144
204,CohesiveFT,Chicago,USA,41.882401,-87.637816,Starbucks,41.88089100000001,-87.638897
205,StartForce,San Francisco,USA,37.796164,-122.420903,Starbucks,37.796758,-122.422096
206,Pivot,Cambridge,USA,42.364367,-71.078978,Starbucks,42.367459,-71.076111
207,Tapulous,Palo Alto,USA,37.444332,-122.161018,Starbucks,37.446791,-122.160561
208,Codefast,San Jose,USA,37.316466,-121.873881,Starbucks,37.315392,-121.872396
209,HealthiNation,New York,USA,40.739341,-73.988357,Starbucks,40.740194,-73.986767
210,Boxee,New York,USA,40.745064,-73.992637,Starbucks,40.74525,-73.99086799999999
211,Bambuser,Stockholm,SWE,59.332788,18.064488,Starbucks,59.3322352,18.0686288
212,Trusera,Seattle,USA,47.617122,-122.305994,Starbucks,47.618084,-122.3038941
213,Keibi Technologies,San Francisco,USA,37.787646,-122.402759,Starbucks,37.7884614,-122.4034092
214,BountyJobs,New York,USA,40.754211,-73.97917,Starbucks,40.753901,-73.97869299999999
215,VBS TV,Brooklyn,USA,40.720764,-73.957968,Starbucks Reserve,40.718005,-73.958219
216,FlyCast,Lancaster,USA,40.039353,-76.307448,Starbucks,40.03996739999999,-76.305441
217,My Damn Channel,New York,USA,40.754762,-73.988543,Starbucks,40.754361,-73.987257
218,My Damn Channel,El Segundo,USA,33.9019543,-118.3872018,Starbucks,33.902255,-118.383561
219,Posterous,San Francisco,USA,37.775196,-122.419204,Starbucks,37.7770595,-122.417347
220,Genbook,San Francisco,USA,37.789902,-122.4007791,Starbucks,37.7896675,-122.4019931
221,Flowgram,San Francisco,USA,37.7710177,-122.4025976,Starbucks,37.770242,-122.403458
222,Bitly,New York,USA,40.74034,-74.00721,Starbucks Reserve New York Roastery,40.7405581,-74.0059674
223,Involver,San Francisco,USA,37.788653,-122.401333,Starbucks,37.788673,-122.400874
224,Blue Lava Technologies,Honolulu,USA,21.309419,-157.86318,Starbucks,21.3081809,-157.8622324
225,Streetline,San Francisco,USA,37.782085,-122.409747,Starbucks,37.7841086,-122.4076337
226,Zendesk,San Francisco,USA,55.676294,12.568116,Starbucks,55.6767348,12.5689913
227,muzu tv,Dublin,IRL,53.341987,-6.262682,Starbucks,53.3417906,-6.263546499999999
228,muzu tv,London,GBR,51.513678,-0.13063,Starbucks Coffee,51.5127331,-0.1333425
229,muzu tv,New York,USA,40.757716,-73.972321,Starbucks,40.756836,-73.97283
230,LiquidTalk,Chicago,USA,41.831001,-87.626918,Starbucks,41.830872,-87.62674799999999
231,BlogHer,Belmont,USA,37.491356,-122.228843,Starbucks,37.490422,-122.225101
232,Lexy,San Francisco,USA,37.786906,-122.397672,Starbucks,37.784833,-122.39996
233,CarbonFlow,San Francsico,USA,37.779097,-122.39365,Starbucks,37.777035,-122.393641
234,CarbonFlow,Sydney,AUS,-33.867139,151.207114,Starbucks,-33.8652185,151.2054493
235,Huddler,San Francisco,USA,37.7893215,-122.4013624,Starbucks,37.788673,-122.400874
236,Prezi,Budapest,HUN,47.490346,19.059078,Starbucks Egyetem tér,47.490961,19.059113
237,Zorap,San Francisco,USA,37.775196,-122.419204,Starbucks,37.7770595,-122.417347
238,Hunch,New York,USA,40.741179,-73.993182,Starbucks,40.741873,-73.993326
239,Local Marketers,Seattle,USA,47.5989681,-122.3329036,Starbucks,47.59907,-122.3326739
240,ngmoco,San Francisco,USA,37.7705096,-122.4015807,Starbucks,37.770242,-122.403458
241,LeisureLogix,Tampa,USA,28.032975,-82.64611,Starbucks,28.0328913,-82.64787319999999
242,Likewise Software,Bellevue,USA,47.582658,-122.135282,Starbucks,47.581863,-122.1348989
243,ZManda,Sunnyvale,USA,37.3725243,-122.035963,Starbucks,37.37422,-122.032769
244,ELDR Media,Corte Madera,USA,37.9260091,-122.5162892,Starbucks,37.927706,-122.517131
245,Occipital,Boulder,USA,40.018145,-105.278109,Starbucks,40.018733,-105.276647
246,Atigeo,Bellevue,USA,47.6174533,-122.2016685,Starbucks,47.6170443,-122.2021678
247,Lyft,San Francisco,USA,37.7899027,-122.4007846,Starbucks,37.7896675,-122.4019931
248,Jumptap,Boston,USA,42.368633,-71.075305,Starbucks,42.367459,-71.076111
249,Jumptap,New York City,USA,40.751478,-73.980305,Starbucks,40.7520837,-73.9811661
250,GoodGuide,San Francisco,USA,37.7983181,-122.4000032,Starbucks,37.797718,-122.401083
251,Lolapps,San Francisco,USA,37.7870923,-122.3999719,Starbucks,37.787764,-122.401087
252,Hangout Industries,Boston,USA,42.352835,-71.0609612,Starbucks,42.3532457,-71.057698
253,Pixelpipe,San Francisco,USA,37.764395,-122.401024,Starbucks,37.7658845,-122.4034908
254,Likewise Software,Bellevue,USA,47.582658,-122.135282,Starbucks,47.581863,-122.1348989
255,ZManda,Sunnyvale,USA,37.3725243,-122.035963,Starbucks,37.37422,-122.032769
256,ELDR Media,Corte Madera,USA,37.9260091,-122.5162892,Starbucks,37.927706,-122.517131
257,Occipital,Boulder,USA,40.018145,-105.278109,Starbucks,40.018733,-105.276647
258,Atigeo,Bellevue,USA,47.6174533,-122.2016685,Starbucks,47.6170443,-122.2021678
259,Lyft,San Francisco,USA,37.7899027,-122.4007846,Starbucks,37.7896675,-122.4019931
260,Jumptap,Boston,USA,42.368633,-71.075305,Starbucks,42.367459,-71.076111
261,Jumptap,New York City,USA,40.751478,-73.980305,Starbucks,40.7520837,-73.9811661
262,GoodGuide,San Francisco,USA,37.7983181,-122.4000032,Starbucks,37.797718,-122.401083
263,Lolapps,San Francisco,USA,37.7870923,-122.3999719,Starbucks,37.787764,-122.401087
264,Hangout Industries,Boston,USA,42.352835,-71.0609612,Starbucks,42.3532457,-71.057698
265,Pixelpipe,San Francisco,USA,37.764395,-122.401024,Starbucks,37.7658845,-122.4034908
266,LiveHive Systems,Waterloo,CAN,43.474686,-80.521246,Starbucks,43.4763516,-80.5253082
267,Buzzd,New York,USA,40.733928,-73.991334,Starbucks,40.7350543,-73.98980399999999
268,Gowalla,Austin,USA,30.2729209,-97.7443863,Starbucks,30.271906,-97.74116099999999
269,PicApp,San Francisco,USA,37.79402,-122.4031242,Starbucks,37.792846,-122.404304
270,Groupon,Chicago,USA,41.8965162,-87.643622,Starbucks,41.896293,-87.641201
271,Finsphere,Bellevue,USA,47.614761,-122.198904,Starbucks,47.6142511,-122.1991481
272,Smule,San Francisco,USA,37.779624,-122.391236,Starbucks,37.777035,-122.393641
273,One Season,San Francisco,USA,37.775196,-122.419204,Starbucks,37.7770595,-122.417347
274,Reframe It,San Francisco,USA,37.782163,-122.400591,Starbucks,37.784833,-122.39996
275,Poptent,Conshohocken,USA,40.0018743,-75.2747196,Starbucks,40.002228,-75.274686
276,Nexenta Systems,Santa Clara,USA,37.444098,-122.161287,Starbucks,37.446791,-122.160561
277,Vuclip,New Delhi,IND,28.635308,77.22496,Amalgamated Bean Coffee Trading Co Ltd,28.632768,77.222728
278,Formspring,San Francisco,USA,39.9052263,-86.0547016,Starbucks,39.905484,-86.051715
279,For Your Imagination,New York,USA,40.744594,-73.989698,Starbucks,40.743839,-73.988846
280,ReverbNation,New York,USA,40.718888,-74.001169,Starbucks,40.718252,-73.999961
281,SureSpeak,Chicago,USA,41.889183,-87.632519,Starbucks,41.89016000000001,-87.63125099999999
282,Pumant,Birmingham,GBR,52.482932,-1.893621,Starbucks,52.48035530000001,-1.8970158
283,DocVerse,San Francisco,USA,37.788115,-122.397141,Starbucks,37.789545,-122.397592
284,Yipit,New York,USA,40.744618,-73.987764,Starbucks,40.7449904,-73.9868247
285,Open-Xchange,Olpe,DEU,51.029415,7.850863,Kaufland Olpe,51.0289112,7.850842900000001
286,TRX Systems,Greenbelt,USA,38.9916581,-76.879257,Starbucks,38.992202,-76.87811599999999
287,DeepDyve,Sunnyvale,USA,37.377787,-122.029217,Starbucks,37.37645,-122.031566
288,Trustpilot,Copenhagen V,DNK,55.6739617,12.5605372,Starbucks,55.6728822,12.5642771
289,Movirtu,London,GBR,51.5499708,-0.1815999,Starbucks,51.5477021,-0.1825006
290,WiChorus,San Jose,USA,37.409096,-121.943191,Starbucks,37.406443,-121.941791
291,Momail,Stockholm,SWE,59.3359806,18.075506,Starbucks,59.3343654,18.0710073
292,Synthesio,New York,USA,40.7431836,-73.9935011,Starbucks,40.743592,-73.992076
293,People Capital,New York,USA,40.756054,-73.986951,Starbucks,40.7567274,-73.9858802
294,expressor software,Burlington,USA,42.485102,-71.211568,Starbucks,42.4863948,-71.2121944
295,mFoundry,Larkspur,USA,37.862592,-122.493561,Starbuck Canvas Works,37.8634803,-122.4919706
296,Viigo,Toronto,CAN,43.6490004,-79.3723339,Starbucks,43.6487479,-79.37251189999999
297,Modelinia,New York,USA,40.739867,-73.990024,Starbucks,40.740442,-73.99122799999999
298,StockTwits,San Diego,USA,32.7161896,-117.168697,Starbucks,32.7159756,-117.1688525
299,Rudder,Houston,USA,29.739322,-95.444747,Starbucks,29.741458,-95.447541
300,Proclivity Systems,New York,USA,40.738954,-73.992,Starbucks,40.740442,-73.99122799999999
301,IMedExchange,Seattle,USA,47.6136485,-122.3371174,Starbucks,47.61386599999999,-122.336973
302,BeliefNetworks,New York,USA,40.746944,-73.983926,Starbucks,40.74850250000001,-73.9851667
303,Robotgalaxy,New York,USA,40.737216,-73.990947,Starbucks,40.73634699999999,-73.99107599999999
304,Sonopia,Menlo Park,USA,37.477944,-122.151234,Starbucks,37.480185,-122.151151
305,3Leaf,Santa Clara,USA,37.381034,-121.971487,Starbucks,37.3811059,-121.9744109
306,Fuego Nation,San Francisco,USA,37.775196,-122.419204,Starbucks,37.7770595,-122.417347
307,Dragonfly,New York,USA,40.756054,-73.986951,Starbucks,40.7567274,-73.9858802
308,Aquest Systems,Sunnyvale,USA,37.390956,-122.032795,Starbucks,37.3882714,-122.0303535
309,Double Fusion,San Francisco,USA,37.7887135,-122.3927145,Starbucks,37.788417,-122.393662
310,5th Finger,San Francisco,USA,37.7900992,-122.4021988,Starbucks,37.7896675,-122.4019931
311,Xumii,San Mateo,USA,37.563585,-122.324621,Starbucks,37.562897,-122.323927
312,ScaleMP,Cupertino,USA,37.3229727,-122.0385792,Starbucks,37.3239724,-122.03642
313,Nangate,New Delhi,IND,28.53536,77.2419522,Starbucks,28.5341408,77.2429429
314,Vocalocity,Atlanta,USA,33.7812614,-84.3675617,Starbucks,33.780223,-84.368832
315,Certess,Campbell,USA,37.295516,-121.960102,Starbucks,37.2946671,-121.9627709
316,Heyzap,San Francisco,USA,37.7905538,-122.4041485,Starbucks,37.79067,-122.403891
317,Meez,San Francisco,USA,37.785271,-122.397582,Starbucks,37.784833,-122.39996
318,PEX Card,New York,USA,40.752539,-73.987871,Starbucks,40.753668,-73.988402
319,Open Kernel Labs,Chicago,USA,41.878984,-87.637,Starbucks,41.878874,-87.63592899999999
320,Xangati,San Jose,USA,37.32136,-122.014616,Starbucks,37.323404,-122.011309
321,Neuralitic Systems,"MontrÃ©al, Qc",CAN,45.5044288,-73.5570651,Starbucks,45.5054333,-73.5582776
322,Mobius Microsystems,Sunnyvale,USA,37.377787,-122.029217,Starbucks,37.37645,-122.031566
323,Appscio,Freedom,USA,36.9397206,-121.7768449,Starbucks,36.940026,-121.775378
324,Comixology,New York,USA,40.740512,-73.987794,Starbucks,40.740194,-73.986767
325,Apprion,Mountain View,USA,37.417485,-122.075789,Starbucks,37.415785,-122.077546
326,Vantrix,"Montreal, Quebec",CAN,45.4949481,-73.5740025,Starbucks,45.4966371,-73.5729952
327,Quantum Secure,San Jose,USA,37.367838,-121.915594,Starbucks,37.37096289999999,-121.9171986
328,KODA,San Francisco,USA,37.788796,-122.40971,Starbucks,37.789146,-122.408456
329,Cyan,Petaluma,USA,38.2743225,-122.6670066,Starbucks,38.275984,-122.668159
330,Medio,Seattle,USA,47.611827,-122.331308,Starbucks Reserve Roastery,47.614039,-122.328079
331,Socialize,San Francisco,USA,38.88521,-76.998641,Starbucks,38.88364199999999,-76.99518599999999
332,Etology,Foster City,USA,37.561111,-122.270487,Starbucks,37.559204,-122.2673
333,Casabi,Campbell,USA,37.293687,-121.934573,Starbucks,37.294733,-121.930948
334,Casabi,Paris,FRA,48.8722501,2.3283343,Starbucks Coffee,48.87024719999999,2.3273903
335,Space-Time Insight,San Mateo,USA,37.555773,-122.27977,Starbucks,37.556934,-122.27598
336,Verve Mobile,Encinitas,USA,33.03898,-117.293385,Starbucks,33.040176,-117.292862
337,WANdisco,Sheffield,GBR,53.3800107,-1.4629301,Starbucks Coffee,53.3803827,-1.4679516
338,Mashup Arts,Halifax,CAN,43.648786,-79.3777473,Starbucks,43.64928219999999,-79.3782595
339,Tinychat,Glen Cove,USA,42.3756409,-72.5196907,Starbucks,42.376776,-72.51961899999999
340,Punch Entertainment,Palo Alto,USA,37.4233698,-122.0986859,Starbucks,37.4218,-122.096419
341,YOUnite,Mountain View,USA,37.388077,-122.08316,Starbucks,37.387571,-122.083068
342,Geewa,Prague 8,CZE,50.0938491,14.4505336,Starbucks,50.0939253,14.4517953
343,L4 Mobile,Seattle,USA,47.676762,-122.2049192,Starbucks,47.675855,-122.206581
344,Crispy Gamer,New York,USA,40.750597,-73.985273,Starbucks,40.751009,-73.987141
345,Optify,Seattle,USA,47.603364,-122.333359,Starbucks,47.6041558,-122.3308269
346,Evostor,Campbell,USA,37.232902,-121.964385,Starbucks Reserve,37.235607,-121.964498
347,Jama Software,Portland,USA,45.5309644,-122.68038,Starbucks,45.52990399999999,-122.6825529
348,iPharro Media,New York,USA,40.7438356,-73.9890149,Starbucks,40.743839,-73.988846
349,Rebit,Longmont,USA,40.146898,-105.1350397,Starbucks,40.147331,-105.13144
350,SpaBooker,New York,USA,40.738567,-73.987199,Starbucks,40.738003,-73.988502
351,Zinwave,Woodland Hills,USA,34.185596,-118.596228,Starbucks,34.187788,-118.599239
352,Infobright,"Toronto, Ontario",CAN,43.6490631,-79.3749698,Starbucks,43.6487479,-79.37251189999999
353,Transfer To,Singapore,SGP,1.3006925,103.8575356,Starbucks,1.3011894,103.8572771
354,Transfer To,Palo Alto,USA,40.705255,-74.010983,Starbucks,40.705162,-74.01133
355,GameChanger Media,New York,USA,40.7078343,-74.0136605,Starbucks,40.706806,-74.012968
356,Z2Live,Seattle,USA,47.6103008,-122.3399782,Starbucks,47.6090095,-122.3399417
357,Ranker,Los Angeles,USA,34.1012181,-118.325739,Starbucks,34.101484,-118.3265
358,Musicmetric,London,GBR,51.5253765,-0.0856982,Starbucks Coffee,51.5262525,-0.08800519999999999
359,Openbravo,Barcelona,ESP,41.3935324,2.1660785,Starbucks,41.3929045,2.1654015
360,Newser,Chicago,USA,41.879535,-87.624333,Starbucks,41.879435,-87.624625
361,Factery,Menlo Park,USA,37.4484914,-122.1802812,Starbucks,37.4509304,-122.178747
362,Busca Corp,La Jolla,USA,32.841791,-117.274602,Starbucks,32.842596,-117.271991
363,Milo,Palo Alto,USA,37.444531,-122.163352,Starbucks,37.446791,-122.160561
364,Kidlandia,SAN FRANCISCO,USA,37.8017938,-122.4043215,Starbucks,37.802887,-122.402977
365,textPlus,Marina del Rey,USA,33.984469,-118.43679,Starbucks,33.985106,-118.43958
366,VKernel Corporation,Boston,USA,42.3497366,-71.0491901,Starbucks,42.3514618,-71.0504454
367,Shareaholic,Boston,USA,42.3647559,-71.1032591,Starbucks,42.365628,-71.10375
368,Sand 9,Cambridge,USA,42.3488891,-71.1068046,Starbucks,42.35115330000001,-71.1089588
369,First Coverage,"Toronto, ON",CAN,43.6878093,-79.3958388,Starbucks,43.68851189999999,-79.39393
370,First Coverage,Boston,USA,42.356931,-71.053991,Starbucks,42.355905,-71.05275999999999
371,Bigfoot Networks,Redwood City,USA,37.536402,-122.325129,Starbucks,37.534018,-122.326154
372,Firm58,Chicago,USA,41.879641,-87.6425816,Starbucks,41.8794042,-87.6408727
373,Firm58,New York,USA,40.766734,-73.988265,Starbucks,40.76915,-73.988233
374,Elanti Systems,Somerset,USA,40.535316,-74.521435,Micro starbucks,40.5370435,-74.5192521
375,Marketcetera,San Francisco,USA,37.788864,-122.4008487,Starbucks,37.788673,-122.400874
376,Garlik,New York,USA,40.7615818,-73.970624,Starbucks,40.761316,-73.96903499999999
377,Saavn,New York,USA,40.743877,-73.98618,Starbucks,40.7449904,-73.9868247
378,Social Solutions,Baltimore,USA,39.281734,-76.581864,Starbucks,39.280753,-76.580356
379,PlantSense,San Francisco,USA,37.7697623,-122.4183929,Starbucks,37.7700385,-122.4161985
380,My-Hammer,Berlin,DEU,52.5092312,13.3883606,Starbucks,52.5111048,13.3899791
381,The Resumator,Pittsburgh,USA,40.438423,-80.001933,Starbucks,40.440254,-80.002256
382,OutSmart Power Systems,Natick,USA,42.2968126,-71.3876282,Starbucks,42.298067,-71.38710499999999
383,ShopSavvy,San Francsico,USA,37.7770719,-122.3966273,Starbucks,37.777035,-122.393641
384,BeeTV,Milan,ITA,45.4636889,9.1881408,STARBUCKS RESERVE® ROASTERY Milano,45.4648798,9.186104499999999
385,GameGround,New York,USA,40.756054,-73.986951,Starbucks,40.7567274,-73.9858802
386,Althea Systems,Bangalore,IND,12.9349604,77.6136847,Starbucks Coffee House,12.9351626,77.6134972
387,isango!,London,GBR,51.519816,-0.1361616,Starbucks Coffee,51.52070879999999,-0.134725
388,Ykone,Paris,FRA,48.8566667,2.3509871,Starbucks,48.8568201,2.3548934
389,Moviepilot,Los Angeles,USA,34.0522342,-118.2436849,Starbucks,34.050984,-118.242338
390,Forterra Systems,San Mateo,USA,37.561576,-122.284173,Starbucks,37.5590258,-122.2830814
391,FastSoft,Pasadena,USA,34.142973,-118.140553,Starbucks,34.145683,-118.143233
392,Layar,Amsterdam,NLD,52.3657578,4.8928722,STARBUCKS The Bank Rembrandtplein,52.3659541,4.8977405
393,Global Fitness Media,Los Angeles,USA,34.054318,-118.462876,Starbucks,34.053737,-118.466101
394,Accellos,Colorado Springs,USA,38.833716,-104.826256,Starbucks,38.8336121,-104.8266909
395,Pontis,Capital Federal,ARG,-34.5631882,-58.4541925,Starbucks,-34.5628359,-58.4562772
396,Omni-ID,Foster City,USA,37.561111,-122.270487,Starbucks,37.559204,-122.2673
397,Edgeware,STOCKHOLM,SWE,59.3326694,18.0523253,Starbucks Stockholm Central Station,59.3305951,18.057374
398,Edgeware,San Jose,USA,37.3403284,-121.8864433,Starbucks,37.33738,-121.888408
399,FireScope,Sydney,AUS,-33.867139,151.207114,Starbucks,-33.8652185,151.2054493
400,High Gear Media,Menlo Park,USA,37.445335,-122.15833,Starbucks,37.446791,-122.160561
401,ChallengePost,New York,USA,40.7408042,-74.00717,Starbucks Reserve New York Roastery,40.7405581,-74.0059674
402,DeciZium,San Jose,USA,37.337756,-121.89435,Starbucks,37.335283,-121.892859
403,StyleCaster,New York City,USA,40.7450497,-73.9900984,Starbucks,40.74525,-73.99086799999999
404,Teambox,Barcelona,ESP,41.4063346,2.1920231,Starbucks,41.4049021,2.1912858
405,Testplant,London,GBR,51.517356,-0.1037742,Starbucks,51.5165386,-0.1033868
406,Testplant,Boulder,USA,40.0230047,-105.2532841,Starbucks,40.021885,-105.25653
407,Clavis Technology,Cambridge,USA,42.3626626,-71.084153,Starbucks,42.363041,-71.08592999999999
408,Tiny Speck,Vancouver,CAN,49.2824551,-123.109217,Starbucks,49.2844427,-123.108513
